	nom	typerestaurant	ville	codepostal	rue	rue2	telephone	mobile	cravings	extras	prix	stationdemetro	Latitude	Longitude
0	Polissons	Restaurant	Paris	75018	35, rue Ramey			+33 6 46 63 57 50	Néobistrot	Antidépresseur,  Terrasse,  13 à table,  Manger seul 	De 36 à 50 €	Château Rouge,  Lamarck-Caulaincourt,  Jules Joffrin	48.8891668	2.3462458999999853
1	Le Dauphin	Restaurant	Paris	75011	131, av. Parmentier		+33 1 55 28 78 88		Tapas,  Bar à vins / Cave à manger	Antidépresseur,  Voir et se faire voir,  Manger seul 	De 36 à 50 €	Goncourt	48.869447	2.371115400000008
2	Le Chien de la Lune	Restaurant	Paris	75018	22, rue de Jessaint		+33 1 42 62 40 60 		Bistrot,  Cuisine du marché	Antidépresseur,  Terrasse	De 16 à 35 €	La Chapelle	48.8850919	2.3553627000000006
3	Le 6 Paul Bert	Restaurant	Paris	75011	6, rue Paul-Bert		+33 1 43 79 14 32		Néobistrot	Ouvert le lundi,  Antidépresseur,  Manger seul 	De 36 à 50 €	Faidherbe - Chaligny	48.8513318	2.3846753000000263
4	Eels	Restaurant	Paris	75010	27, rue d'Hauteville		+33 1 42 28 80 20		Cuisine d'auteur,  Néobistrot	Antidépresseur,  Terrasse	Plus de 51 €	Bonne Nouvelle,  Château d'Eau	48.8732428	2.350104999999985
5	Brutos	Restaurant	Paris	75011	5, rue du Général-Renault		+33 1 48 06 98 97		Néobistrot,  Viandes / Grillades	Ouvert le dimanche,  Antidépresseur,  Terrasse,  13 à table	De 36 à 50 €	Saint-Ambroise	48.8615187	2.3781291000000238
6	Hero	Restaurant	Paris	75002	289, rue Saint-Denis		+33 1 42 33 38 01		Coréen	Ouvert le dimanche,  Ouvert le lundi,  Take-away,  Manger seul 	De 16 à 35 €	Strasbourg-Saint-Denis	48.86949910000001	2.3523430999999846
7	Virtus	Restaurant	Paris	75012	29, rue de Cotte		+33 9 80 68 08 08		Cuisine d'auteur,  Cuisine du marché,  Néobistrot	Antidépresseur	Plus de 51 €	Faidherbe - Chaligny,  Ledru Rollin	48.8501852	2.377965099999983
8	Elmer	Restaurant	Paris	75003	30, rue Notre-Dame-de-Nazareth		+33 1 43 56 22 95		Cuisine d'auteur,  Néobistrot,  Viandes / Grillades	Antidépresseur,  Terrasse,  13 à table	Plus de 51 €	Temple	48.86742719999999	2.359420699999987
9	Prosper et Fortunée	Restaurant	Paris	75005	50, rue Broca		+33 1 43 37 70 39		Cuisine d'auteur,  Néobistrot	Antidépresseur	Plus de 51 €	Les Gobelins,  Censier - Daubenton	48.8376222	2.347202599999946
10	Tzeferakos	Restaurant	Paris	75005	24, rue Monge		+ 33 1 46 34 76 27		Grec,  Lèche-doigts	Ouvert le dimanche,  Take-away,  Terrasse	De 16 à 35 €	Cardinal Lemoine	48.8468959	2.3511320999999725
11	CheZaline	Restaurant	Paris	75011	85, rue de la Roquette		+33 1 43 71 90 75		Sandwichs / Bagels,  Lèche-doigts	Ouvert le lundi,  Take-away,  Antidépresseur,  Terrasse,  Manger seul 	Moins de 15 €	Voltaire	48.8571274	2.378407799999991
12	Pierre Sang in Oberkampf	Restaurant	Paris	75011	55, rue Oberkampf		+33 9 67 31 96 80 		Cuisine d'auteur,  Néobistrot	Ouvert le dimanche,  Ouvert le lundi,  Kid friendly,  Antidépresseur	De 16 à 35 €	Oberkampf,  Parmentier	48.8647218	2.3724244999999655
13	Le Chateaubriand	Restaurant	Paris	75011	129, av. Parmentier		+33 1 43 57 45 95		Cuisine d'auteur,  Néobistrot	Antidépresseur,  Fais-moi mal	Plus de 51 €	Goncourt	48.8693593	2.371313999999984
14	La Buvette	Restaurant	Paris	75011	67, rue Saint-Maur		+33 9 83 56 94 11		Bar à vins / Cave à manger	Ouvert le dimanche,  Ouvert le lundi,  Take-away,  Antidépresseur,  Manger seul 	Moins de 15 €	Rue Saint-Maur	48.8629024	2.3792240999999876
15	Bar à Momos 	Restaurant	Paris	75012	218, rue du Faubourg Saint-Antoine		+33 1 43 72 89 82		Lèche-doigts,  Tibétain	Ouvert le dimanche,  Ouvert le lundi,  Take-away,  Faim de nuit,  Manger seul 	Moins de 15 €	Faidherbe - Chaligny	48.8495649	2.3870848999999907
16	Restaurant Passerini	Restaurant	Paris	75012	65, rue Traversière		+ 33 1 43 42 27 56		Cuisine d'auteur,  Italien,  Néobistrot	Antidépresseur,  Terrasse	De 36 à 50 €	Ledru Rollin	48.8494184	2.374820600000021
17	Le Vitis	Restaurant	Paris	75015	8, rue Falguière		+33 1 42 73 07 02		Bistrot,  Terroir,  Bar à vins / Cave à manger	Kid friendly,  Antidépresseur,  Terrasse,  13 à table	De 16 à 35 €	Falguière	48.8438106	2.3171654000000217
18	Chez Alain Miam Miam	Restaurant	Paris	75003	26, rue Charlot		+33 9 86 17 28 00		Biocool,  Crêperie,  Sandwichs / Bagels,  Lèche-doigts	Ouvert le dimanche,  Take-away,  Manger seul 	Moins de 15 €	Temple,  Filles du Calvaire,  Arts et Métiers	48.86226010000001	2.3620224000000007
19	Banh Mi	Restaurant	Paris	75003	81, rue de Turbigo		+33 1 48 04 98 90		Asiatique,  Vietnamien,  Snack / Tartes / Salades / Soupes / Bols,  Sandwichs / Bagels,  Lèche-doigts	Ouvert le lundi,  Take-away,  Manger seul 	Moins de 15 €	Temple	48.86666719999999	2.3606803999999784
20	Maison David	Restaurant	Paris	75004	6, rue des Ecouffes		+33 1 77 18 23 62		Yiddish,  Sandwichs / Bagels,  Planches / Assiettes froides,  Lèche-doigts	Ouvert le dimanche,  Take-away,  Antidépresseur,  Brunch,  Manger seul 	Plus de 51 €	Saint-Paul,  Saint-Paul	48.8564745	2.3584253000000217
21	La Taverne de Zhao	Restaurant	Paris	75010	49, rue des Vinaigriers		+33 1 40 37 16 21 		Chinois	Ouvert le dimanche,  Take-away,  Manger seul 	De 16 à 35 €	Jacques Bonsergent,  Gare de l'Est,  Château d'Eau	48.87313409999999	2.360299199999986
22	SAaM	Restaurant	Paris	75010	59 bis, rue de Lancry		+33 9 83 50 84 94 		Coréen,  Taïwanais,  Lèche-doigts	Take-away,  Manger seul 	Moins de 15 €	Jacques Bonsergent,  Gare de l'Est	48.8721942	2.3626411999999846
23	Le Bougainville	Restaurant	Paris	75002	5, rue de la Banque		+33 1 42 60 05 19		Bistrot	Ouvert le lundi,  Take-away,  Antidépresseur,  Terrasse,  Manger seul 	De 16 à 35 €	Bourse	48.8665455	2.3400839999999334
24	Coinstot Vino	Restaurant	Paris	75002	26 bis, passage des Panoramas		+33 1 44 82 08 54		Pizzas,  Bar à vins / Cave à manger	Ouvert le lundi,  Take-away,  Antidépresseur,  Faim de nuit,  Terrasse	De 16 à 35 €	Bourse,  Grands Boulevards,  Richelieu - Drouot	48.8706514	2.341592100000071
25	Le Baratin	Restaurant	Paris	75020	3, rue Jouye-Rouve		+33 1 43 49 39 70		Bistrot,  Cuisine d'auteur,  Bar à vins / Cave à manger	Antidépresseur,  Faim de nuit	De 36 à 50 €	Pyrénées	48.8731293	2.382917799999973
26	Miss Lunch	Restaurant	Paris	75012	3, rue Antoine-Vollon		+33 1 53 33 03 59		Cuisine du marché	Antidépresseur,  Brunch,  Terrasse,  Manger seul 	De 16 à 35 €	Ledru Rollin	48.8504446	2.3765937000000577
27	Rusidda	Restaurant	Paris	75003	1, rue Borda		+ 33 9 86 47 54 74		Italien	Take-away,  Antidépresseur,  Terrasse,  Manger seul 	De 16 à 35 €	Arts et Métiers	48.8660764	2.357429400000001
28	Kodawari Yokocho 	Restaurant	Paris	75006	29, rue Mazarine		+ 33 9 70 91 12 41		Japonais	Ouvert le dimanche,  Antidépresseur	De 16 à 35 €	Odéon	48.8546579	2.338127100000065
29	Pianovins	Restaurant	Paris	75011	46, rue Trousseau		+33 1 48 06 95 85		Néobistrot	Antidépresseur,  Terrasse	De 36 à 50 €	Faidherbe - Chaligny,  Ledru Rollin	48.8523649	2.3792419999999765
30	Street Bangkok Roast & Beer	Restaurant	Paris	75002	112, rue Saint-Denis		+33 1 42 36 60 92		Asiatique,  Thaïlandais,  Lèche-doigts	Ouvert le dimanche,  Ouvert le lundi,  Antidépresseur,  Faim de nuit,  Terrasse	De 16 à 35 €	Etienne Marcel	48.8639143	2.3503427000000556
31	Jòia	Restaurant	Paris	75002	39, rue des Jeûneurs		+33 1 40 20 06 06		Bistrot	Ouvert le dimanche,  Ouvert le lundi,  Brunch,  Voir et se faire voir	De 36 à 50 €	Bourse,  Grands Boulevards	48.8697224	2.3434919000000036
32	Le Costes	Restaurant	Paris	75001	239-241, rue Saint-Honoré		+33 1 42 44 50 25		Nourritures mondaines	Ouvert le dimanche,  Ouvert le lundi,  Faim de nuit,  Terrasse,  Voir et se faire voir	Plus de 51 €	Tuileries	48.8666683	2.327974499999982
33	Autour du Yangtse	Restaurant	Paris	75009	12, rue du Helder		+33 1 53 34 05 78		Chinois	Ouvert le lundi,  Take-away,  Manger seul 	Moins de 15 €	Chaussée d'Antin - La Fayette	48.8720325	2.3350642000000335
34	Mokonuts	Restaurant	Paris	75011	5, rue Saint-Bernard		+ 33 9 80 81 82 85		Café / Coffee Shop,  Cuisine d'auteur,  Cuisine du marché,  Salon de thé / Pâtisserie	Ouvert le lundi,  Take-away,  Antidépresseur,  Terrasse,  Manger seul 	De 36 à 50 €	Faidherbe - Chaligny	48.8507906	2.3813834000000043
35	Jium	Restaurant	Paris	75015	26, rue Tiphaine		+33 1 45 75 20 00		Coréen	Ouvert le lundi,  Antidépresseur,  Manger seul 	De 16 à 35 €	La Motte-Picquet - Grenelle	48.8486977	2.296633199999974
36	Les Marches	Restaurant	Paris	75116	5, rue de la Manutention		+33 1 47 23 52 80		Bistrot	Ouvert le dimanche,  Ouvert le lundi,  Antidépresseur,  Manger seul 	De 16 à 35 €	Iéna	48.86390129999999	2.2959468000000243
37	Bouillon Pigalle	Restaurant	Paris	75018	22, boulevard de Clichy 		+33 1 42 59 69 31		Brasserie	Ouvert le dimanche,  Ouvert le lundi,  Kid friendly,  Antidépresseur,  Faim de nuit,  Terrasse,  13 à table,  Manger seul 	De 16 à 35 €	Pigalle	48.8826517	2.3374635000000126
38	Papillon	Restaurant	Paris	75017	8, rue Meissonier		+ 33 1 56 79 81 88		Cuisine d'auteur,  Néobistrot,  Nourritures mondaines,  Table d'hôte	Ouvert le lundi,  Terrasse,  Voir et se faire voir,  Fais-moi mal,  13 à table	Plus de 51 €	Wagram	48.8834223	2.30475279999996
39	Vermillon	Restaurant	Paris	75009	5, rue de Calais		+ 33 1 42 41 49 68		Cuisine du marché	Antidépresseur,  Terrasse	De 16 à 35 €	Blanche,  Place de Clichy	48.8822195	2.3313728000000538
40	Le Chardenoux	Restaurant	Paris	75011	1, rue Jules-Vallès		+33 1 43 71 49 52		Néobistrot,  Poissons et fruits de mer	Ouvert le dimanche,  Ouvert le lundi,  Antidépresseur,  Terrasse,  Voir et se faire voir,  Fais-moi mal,  Manger seul 	Plus de 51 €	Faidherbe - Chaligny,  Charonne,  Rue des Boulets 	48.8527401	2.3849338999999645
41	Early June	Restaurant	Paris	75010	19, rue Jean Poulmarch		+33142854074		Bar à vins / Cave à manger	Take-away,  Antidépresseur,  Terrasse	De 16 à 35 €	Jacques Bonsergent,  Gare de l'Est	48.87291459999999	2.363441200000011
42	Cantina	Restaurant	Paris	75010	11, rue Marie-et-Louise		Pas de téléphone. 		Néobistrot	Ouvert le dimanche,  Antidépresseur	De 16 à 35 €	République,  Jacques Bonsergent,  Goncourt	48.87188	2.366474499999981
43	Restaurant du Badaboum	Restaurant	Paris	75011	2, rue des Taillandiers		+33 1 85 09 75 46		Cuisine d'auteur,  Cuisine du marché,  Néobistrot,  Bar à vins / Cave à manger	Antidépresseur,  Terrasse,  13 à table,  Manger seul 	De 16 à 35 €	Ledru Rollin	48.85345299999999	2.3757510000000366
44	Gramme	Restaurant	Paris	75003	86, rue des Archives		+33 9 50 92 20 23		Café / Coffee Shop,  Snack / Tartes / Salades / Soupes / Bols	Ouvert le dimanche,  Take-away,  Antidépresseur,  Terrasse	Moins de 15 €	Temple,  Filles du Calvaire,  Arts et Métiers	48.86306279999999	2.360760199999959
45	Ngoc Xuyen Saigon 	Restaurant	Paris	75013	4, rue Caillaux 		+33 1 44 24 14 31		Asiatique,  Vietnamien	Ouvert le lundi,  Take-away,  Antidépresseur,  Manger seul 	De 16 à 35 €	Maison Blanche	48.82290320000001	2.361775800000032
46	Sucrépice	Restaurant	Paris	75005	5, rue d'Arras		+33 1 72 67 11 74		Chinois	Ouvert le dimanche,  Ouvert le lundi,  Take-away,  Antidépresseur,  Manger seul 	Moins de 15 €	Cardinal Lemoine	48.84736669999999	2.351738100000034
47	Chinaski	Restaurant	Paris	75005	46, rue Daubenton		+33 1 73 74 74 06		Café / Coffee Shop,  Cuisine d'auteur,  Néobistrot	Ouvert le dimanche,  Antidépresseur,  Terrasse,  13 à table,  Manger seul 	De 16 à 35 €	Censier - Daubenton	48.8403583	2.350235600000019
48	Adar	Restaurant	Paris	75002	49, passage des Panoramas			+33 6 64 49 18 68 	Cuisine du marché,  Méditerranéen,  Sandwichs / Bagels,  Lèche-doigts,  Israélien	Ouvert le lundi,  Take-away,  Antidépresseur,  Terrasse,  Manger seul 	De 16 à 35 €	Grands Boulevards	48.8709479	2.341645900000003
49	Au Bon Coin	Restaurant	Paris	75005	21, rue de la Collégiale		+33 1 43 31 55 57		Néobistrot	Ouvert le dimanche,  Ouvert le lundi,  Kid friendly,  Antidépresseur,  Terrasse,  Manger seul 	De 36 à 50 €	Les Gobelins,  Place Monge	48.8381872	2.351853099999971
50	CoCo	Restaurant	Paris	75009	1, pl. Jacques-Rouché		+33 1 42 68 86 80		Brasserie,  Nourritures mondaines	Ouvert le dimanche,  Ouvert le lundi,  Terrasse,  Voir et se faire voir,  Fais-moi mal,  13 à table,  Manger seul 	Plus de 51 €	Opéra	48.8720588	2.3322736000000077
51	Déviant	Restaurant	Paris	75010	39, rue des Petites-Ecuries		Pas de téléphone. 		Bar à vins / Cave à manger,  Lèche-doigts	Faim de nuit,  Terrasse,  Manger seul 	De 16 à 35 €	Poissonnière,  Bonne Nouvelle,  Château d'Eau	48.8738211	2.35000279999997
52	Chez Joy	Restaurant	Paris	75014	84, rue Daguerre		+33 1 43 20 01 68		Asiatique,  Thaïlandais,  Vietnamien	Ouvert le lundi,  Take-away,  Terrasse,  13 à table,  Manger seul 	De 16 à 35 €	Gaîté,  Pernéty	48.83579109999999	2.3248510999999326
53	Colchide 	Restaurant	Paris	75018	97, rue des Poissonniers		+33 9 80 94 09 68		Géorgien	Ouvert le lundi,  Faim de nuit,  13 à table,  Manger seul 	De 16 à 35 €	Pigalle	48.8926232	2.352080399999977
54	L'Enoteca	Restaurant	Paris	75004	25, rue Charles-V		+33 1 42 78 91 44		Italien,  Pâtes	Ouvert le dimanche,  Ouvert le lundi	De 36 à 50 €	Saint-Paul,  Sully - Morland	48.8533138	2.3618052
55	Tanguy	Restaurant	Paris	75010	15, rue de l'Échiquier		+33 1 42 46 01 41		Crêperie	Ouvert le dimanche,  Kid friendly,  Manger seul 	Moins de 15 €	Bonne Nouvelle,  Château d'Eau,  Strasbourg-Saint-Denis	48.8711621	2.3518219
56	Fogón Ultramarinos	Restaurant	Paris	75007	38, rue de Verneuil		+33 1 43 54 31 33		Espagnol,  Tapas,  Sandwichs / Bagels,  Lèche-doigts	Take-away,  Antidépresseur	De 16 à 35 €	Rue du Bac,  Solférino	48.8580627	2.329070799999954
57	Plume	Restaurant	Paris	75007	24, rue Pierre-Leroux		+33 1 43 06 79 85		Cuisine d'auteur,  Néobistrot	Antidépresseur,  Terrasse	De 36 à 50 €	Vaneau	48.8487714	2.319201000000021
58	Tounsia	Restaurant	Paris	75010	55, rue de Paradis			+33 7 66 68 37 21	Lèche-doigts,  Tunisien	Antidépresseur	De 16 à 35 €	Poissonnière,  Cadet	48.8755834	2.3487668000000212
59	Giulia	Restaurant	Paris	75014	26, rue Edouard Jacques		+33 1 77 35 03 19		Italien,  Pizzas	Ouvert le dimanche,  Ouvert le lundi,  Antidépresseur,  Terrasse,  13 à table,  Manger seul 	De 16 à 35 €	Pernéty	48.8345894	2.3216810000000123
60	Cambuse	Restaurant	Paris	75019	43, quai de la Seine		+33 9 82 55 11 71		Bar à vins / Cave à manger	Ouvert le lundi,  Take-away,  Terrasse	De 16 à 35 €	Riquet,  Stalingrad	48.8865039	2.3732835
61	Le P’tit Pinard	Restaurant	Paris	75011	18, rue Saint-Ambroise		+33 9 87 02 00 11		Bistrot,  Tapas,  Bar à vins / Cave à manger	Ouvert le dimanche,  Take-away,  Kid friendly,  Antidépresseur,  Brunch	De 16 à 35 €	Saint-Maur,  Saint-Ambroise	48.8623743	2.3781413
62	Sürpriz	Restaurant	Paris	75011	 110, rue Oberkampf				Kebabs,  Lèche-doigts,  Turc	Ouvert le lundi,  Take-away,  Antidépresseur,  Terrasse,  Manger seul 	Moins de 15 €	Ménilmontant,  Parmentier,  Rue Saint-Maur	48.865999	2.379091
63	Kémia	Restaurant	Paris	75010	1, rue Bergère		+33 9 86 17 17 63		Cuisine du marché,  Méditerranéen,  Lèche-doigts	Ouvert le lundi,  Antidépresseur,  Terrasse		Bonne Nouvelle,  Grands Boulevards	48.8719938	2.3476571
64	Petite Fleur	Restaurant	Paris	75018	5, rue Damrémont		+33 1 42 58 98 75		Tapas,  Néobistrot	Terrasse	De 16 à 35 €	Blanche,  Lamarck-Caulaincourt,  Place de Clichy	48.8875346	2.3324419
65	Shinjuku Pigalle	Restaurant	Paris	75009	52, rue Condorcet		+33 1 42 06 18 14		Japonais	Antidépresseur,  Manger seul 	De 16 à 35 €	Anvers,  Pigalle	48.88030209999999	2.34318559999997
66	Dumbo	Restaurant	Paris	75009	64, rue Jean-Baptiste Pigalle		Pas de téléphone. 		Burgers	Take-away,  Antidépresseur,  Manger seul 	Moins de 15 €	Pigalle	48.8816541	2.3369591000000582
67	Basique	Restaurant	Paris	75011	164, av. Ledru-Rollin		+33 1 40 24 20 48		Tapas	Antidépresseur,  Terrasse	De 16 à 35 €	Voltaire	48.85662629999999	2.3794030999999904
68	Bontemps	Restaurant	Paris	75003	57, rue de Bretagne		+33 1 42 74 10 68		Salon de thé / Pâtisserie,  Snack / Tartes / Salades / Soupes / Bols	Ouvert le dimanche,  Take-away,  Kid friendly,  Antidépresseur,  Brunch,  Terrasse	De 16 à 35 €	Temple,  Arts et Métiers	48.8638169	2.360690100000056
69	Melt 17	Restaurant	Paris	75017	83, rue Legendre		+33 9 87 09 99 25 		Viandes / Grillades,  Lèche-doigts	Ouvert le dimanche,  Ouvert le lundi,  Take-away,  Kid friendly,  Antidépresseur,  Faim de nuit,  13 à table,  Manger seul 	De 16 à 35 €	La Fourche	48.8877859	2.3202774999999747
70	Mokoloco	Restaurant	Paris	75011	74, rue de Charonne				Japonais,  Sandwichs / Bagels	Antidépresseur,  Manger seul 	De 16 à 35 €	Faidherbe - Chaligny,  Ledru Rollin,  Charonne	48.8534502	2.3800439000000324
71	Freddy’s	Restaurant	Paris	75006	54, rue de Seine		Pas de téléphone.		Tapas,  Bar à vins / Cave à manger	Ouvert le dimanche,  Ouvert le lundi,  Antidépresseur,  Manger seul 	De 16 à 35 €	Mabillon	48.8540863	2.3368735000000243
72	Così	Restaurant	Paris	75006	54, rue de Seine		+33 1 46 33 35 36		Sandwichs / Bagels,  Lèche-doigts	Ouvert le dimanche,  Ouvert le lundi,  Antidépresseur,  Faim de nuit,  Manger seul 	Moins de 15 €	Mabillon	48.8540863	2.3368735000000243
73	Pizzou	Restaurant	Paris	75009	28, rue de Douai		+33 1 74 64 50 10		Italien,  Pizzas	Ouvert le dimanche,  Ouvert le lundi,  Take-away,  Kid friendly,  Faim de nuit,  Terrasse	De 16 à 35 €	Pigalle,  Blanche,  Place de Clichy	48.8825795	2.3329356000000416
74	Gare au Gorille 	Restaurant	Paris	75017	68, rue des Dames		+33 1 42 94 24 02		Cuisine d'auteur,  Cuisine du marché,  Néobistrot	Ouvert le lundi,  Antidépresseur	De 36 à 50 €	Rome	48.8835719	2.319894999999974
75	Pompette	Restaurant	Paris	75009	15, rue Hippolyte-Lebas			+33 6 62 85 04 87	Néobistrot,  Bar à vins / Cave à manger	Manger seul 	De 16 à 35 €	Cadet,  Notre-Dame de Lorette,  Saint-Georges,  Le Peletier	48.877075	2.3401496
76	Mesa	Restaurant	Paris	75009	68, rue des Martyrs		+33 1 77 37 87 21		Biocool,  Néobistrot,  Végétarien	Antidépresseur,  Brunch	De 36 à 50 €	Anvers,  Pigalle	48.88118069999999	2.340226
77	Chantoiseau	Restaurant	Paris	75018	63, rue Lepic		+33 1 42 51 39 95		Cuisine du marché,  Néobistrot	Ouvert le dimanche,  Antidépresseur	De 36 à 50 €	Blanche,  Lamarck-Caulaincourt,  Abbesses	48.8878044	2.3347482
78	Ama Siam	Restaurant	Paris	75019	49, rue de Belleville		+33 9 51 66 60 79		Asiatique,  Laotien,  Thaïlandais,  Vietnamien	Antidépresseur	De 16 à 35 €	Belleville,  Pyrénées	48.8731455	2.380934
79	Mar'Co	Restaurant	Paris	75001	4, rue de la Sourdière		+33 1 44 82 03 74		Nourritures mondaines	Ouvert le lundi,  Voir et se faire voir	De 16 à 35 €	Pyramides,  Tuileries	48.8652726	2.331833700000061
80	Pico	Restaurant	Paris	75001	110, rue Saint-Honoré		Pas de téléphone		Snack / Tartes / Salades / Soupes / Bols,  Lèche-doigts	Ouvert le lundi,  Take-away,  Terrasse,  Manger seul 	De 16 à 35 €	Louvre - Rivoli,  Les Halles	48.8616821	2.3417151999999533
81	Frenchie bar à vins	Restaurant	Paris	75002	6, rue du Nil		+33 1 40 39 96 19		Bar à vins / Cave à manger	Ouvert le dimanche,  Ouvert le lundi,  Faim de nuit	De 36 à 50 €	Sentier	48.8678009	2.347908
82	La Main Noire	Restaurant	Paris	75018	12, rue Cavallotti				Café / Coffee Shop,  Végétarien	Ouvert le dimanche,  Take-away,  Brunch,  Terrasse,  Manger seul 	De 16 à 35 €	Place de Clichy	48.8865087	2.3281552
83	Trois Fois Plus de Piment	Restaurant	Paris	75003	184, rue Saint-Martin			+33 6 52 66 75 31	Asiatique,  Chinois	Ouvert le dimanche,  Take-away,  Antidépresseur,  Manger seul 	Moins de 15 €	Rambuteau	48.8628031	2.3524354
84	Okomusu	Restaurant	Paris	75003	11, rue Charlot		+33 1 57 40 97 27		Asiatique,  Japonais	Ouvert le dimanche,  Take-away,  Manger seul 	De 16 à 35 €	Filles du Calvaire,  Saint-Sébastien-Froissart	48.86149529999999	2.3607534000000214
85	Le Ruisseau Burger Joint	Restaurant	Paris	75003	22, rue Rambuteau		+33 1 43 70 02 21		Burgers,  Lèche-doigts	Ouvert le dimanche,  Ouvert le lundi,  Take-away,  Kid friendly,  Antidépresseur,  Faim de nuit,  Manger seul 	Moins de 15 €	Rambuteau	48.86115820000001	2.3545435999999427
86	Aux Prés	Restaurant	Paris	75006	27, rue du Dragon		+33 1 45 48 29 68 		Néobistrot	Ouvert le dimanche,  Ouvert le lundi,  Antidépresseur,  Faim de nuit,  Brunch,  Fais-moi mal,  Manger seul 	Plus de 51 €	Saint-Germain des Prés	48.85272399999999	2.33051219999993
87	Ze Kitchen Galerie	Restaurant	Paris	75006	4, rue des Grands-Augustins		+33 1 44 32 00 32		Cuisine d'auteur	Ouvert le lundi,  Antidépresseur,  Voir et se faire voir,  Fais-moi mal,  Manger seul 	Plus de 51 €	Saint-Michel	48.8549703	2.341129799999976
88	Yoshinori	Restaurant	Paris	75006	18, rue Grégoire de Tours		+33 9 84 19 76 05		Cuisine d'auteur,  Néobistrot	Antidépresseur,  Fais-moi mal,  Manger seul 	Plus de 51 €	Mabillon,  Odéon	48.8530078	2.3377113999999892
89	Street Bangkok Seine	Restaurant	Paris	75006	73, rue de Seine		+33 1 42 03 63 25		Asiatique,  Thaïlandais	Ouvert le dimanche,  Ouvert le lundi,  Take-away,  Manger seul 	Moins de 15 €	Mabillon	48.8540893	2.3370927999999367
90	Le Clarence	Restaurant	Paris	75008	31, av. Franklin-Delano-Roosevelt		+33 1 82 82 10 10		Cuisine d'auteur	Antidépresseur,  Fais-moi mal	Plus de 51 €	Champs Elysées - Clémenceau	48.86743920000001	2.3098377000000028
91	Peco Peco	Restaurant	Paris	75009	47, rue Jean-Baptiste-Pigalle		+33 1 53 16 19 84		Asiatique,  Japonais	Ouvert le lundi,  Take-away,  Antidépresseur	De 16 à 35 €	Pigalle	48.8802525	2.3346105000000534
92	Clamato	Restaurant	Paris	75011	80, rue de Charonne		+33 1 43 72 74 53		Poissons et fruits de mer	Ouvert le dimanche,  Ouvert le lundi,  Antidépresseur,  Terrasse,  Voir et se faire voir,  Manger seul 	De 36 à 50 €	Ledru Rollin,  Charonne	48.8535855	2.3807021999999733
93	Kigawa 	Restaurant	Paris	75014	186, rue du Château			+33 6 43 74 25 73	Cuisine d'auteur	Antidépresseur,  Terrasse,  Voir et se faire voir,  Fais-moi mal,  Manger seul 	Plus de 51 €	Pernéty	48.833134	2.3242692000000034
94	L'Archeste	Restaurant	Paris	75116	79, rue de la Tour		+ 33 1 40 71 69 68		Cuisine d'auteur	Fais-moi mal	Plus de 51 €	Rue de la Pompe	48.86174190000001	2.2780983000000106
95	Daroco 16	Restaurant	Paris	75016	3, pl. Clément-Ader		+33 1 44 14 91 91		Italien,  Pizzas	Ouvert le dimanche,  Ouvert le lundi,  Antidépresseur,  Faim de nuit,  Terrasse,  Voir et se faire voir	De 36 à 50 €	Charles Michels,  Jasmin	48.851537	2.277785999999992
96	Le Maquis	Restaurant	Paris	75018	53, rue des Cloys		+33 1 42 58 87 82		Cuisine du marché,  Néobistrot	Antidépresseur,  Terrasse	De 16 à 35 €	Lamarck-Caulaincourt,  Jules Joffrin	48.8931361	2.3372634
97	Mi Kwabo 	Restaurant	Paris	75009	42, rue Rodier			+33 7 64 05 69 32	Africain,  Cuisine d'auteur	Terrasse	De 36 à 50 €	Poissonnière,  Anvers,  Cadet	48.8795294	2.3435407
98	Fulgurances, L’Entrepôt	Restaurant	Paris	75014	7, rue Francis-de-Pressensé		+33 1 45 40 07 50		Cuisine d'auteur	Ouvert le dimanche,  Take-away,  Antidépresseur,  Terrasse,  13 à table	De 16 à 35 €	Pernéty	48.83397189999999	2.3165548
99	Eats Thyme 	Restaurant	Paris	75001	44, rue Coquillière		+33 1 42 33 21 15		Libanais	Ouvert le lundi,  Take-away,  Antidépresseur,  Terrasse,  Manger seul 	Moins de 15 €	Bourse,  Palais Royal-Musée du Louvre,  Louvre - Rivoli,  Les Halles	48.8646983	2.3407887
100	Le Truffaut	Restaurant	Paris	75017	89, rue Truffaut		+33 9 87 56 67 56 		Bistrot	Ouvert le lundi,  Terrasse,  Manger seul 	De 16 à 35 €	Brochant,  La Fourche	48.8886814	2.3166724
101	Balagan	Restaurant	Paris	75001	9, rue d'Alger		+33 1 40 20 72 14		Méditerranéen,  Israélien	Ouvert le dimanche,  Ouvert le lundi,  Voir et se faire voir,  13 à table	De 36 à 50 €	Tuileries	48.8654671	2.3296697000000677
102	Kitchen Ter(re)	Restaurant	Paris	75005	26, boulevard Saint-Germain		+33 1 42 39 47 48		Cuisine d'auteur,  Néobistrot	Antidépresseur,  Terrasse	De 36 à 50 €	Maubert - Mutualité,  Cardinal Lemoine	48.8496179	2.353134100000034
103	Comice	Restaurant	Paris	75016	31, avenue de Versailles		+33 1 42 15 55 70		Cuisine d'auteur	Antidépresseur,  Fais-moi mal	Plus de 51 €	Mirabeau	48.849433	2.2762490999999727
104	Yam’Tcha	Restaurant	Paris	75001	121, rue Saint-Honoré		+33 1 40 26 08 07		Cuisine d'auteur	Antidépresseur,  Fais-moi mal	Plus de 51 €	Louvre - Rivoli	48.86141569999999	2.341659599999957
105	La Bourse et la Vie	Restaurant	Paris	75002	12, rue Vivienne		+33 1 42 60 08 83		Bistrot	Ouvert le lundi,  Antidépresseur	Plus de 51 €	Bourse	48.8676204	2.3395636000000195
106	Clover Green 	Restaurant	Paris	75007	5, rue Perronet		+33 1 75 50 00 05		Cuisine d'auteur,  Néobistrot	Antidépresseur,  Voir et se faire voir,  Fais-moi mal	Plus de 51 €	Saint-Germain des Prés,  Mabillon,  Rue du Bac	48.85517840000001	2.330281600000035
107	Brasserie Thoumieux	Restaurant	Paris	75007	79, rue Saint-Dominique		+33 1 47 05 79 00		Néobrasserie	Ouvert le dimanche,  Ouvert le lundi,  Kid friendly,  Antidépresseur,  Faim de nuit,  Brunch,  Voir et se faire voir,  Fais-moi mal	Plus de 51 €	La Tour-Maubourg	48.8597648	2.308668500000067
108	Rose Bakery 	Restaurant	Paris	75009	46, rue des Martyrs		+33 1 42 82 12 80		Biocool,  Café / Coffee Shop,  Salon de thé / Pâtisserie,  Végétarien	Ouvert le dimanche,  Ouvert le lundi,  Take-away,  Antidépresseur,  Manger seul 	De 16 à 35 €	Saint-Georges	48.8794614	2.340155399999958
109	Ima Cantine	Restaurant	Paris	75010	39, quai de Valmy		+33 1 40 36 41 37		Café / Coffee Shop,  Méditerranéen,  Snack / Tartes / Salades / Soupes / Bols	Ouvert le dimanche,  Ouvert le lundi,  Take-away,  Antidépresseur,  Brunch,  Terrasse,  Voir et se faire voir,  13 à table,  Manger seul 	De 16 à 35 €	République,  Goncourt	48.8692962	2.366275299999984
110	Biondi	Restaurant	Paris	75011	118, rue Amelot		+33 1 47 00 90 18		Argentin,  Néobistrot,  Viandes / Grillades	Ouvert le lundi,  Antidépresseur,  Terrasse	De 36 à 50 €	Filles du Calvaire,  Oberkampf	48.8638315	2.3671143999999913
111	Le Petit Keller	Restaurant	Paris	75011	13, rue Keller		+33 1 43 55 90 54		Japonais,  Néobistrot	Antidépresseur,  Terrasse,  Manger seul 	De 16 à 35 €	Ledru Rollin	48.8542825	2.376074600000038
112	Jin Xin Lou	Restaurant	Paris	75013	63, rue de l'Amiral Mouchez		+33 1 53 80 27 89		Cuisine d'auteur	Antidépresseur,  Manger seul 	De 16 à 35 €	Corvisart,  Maison Blanche	48.82176399999999	2.342424199999982
113	Le Cette	Restaurant	Paris	75014	7, rue Campagne-Première		+33 1 43 21 05 47		Néobistrot	Ouvert le lundi,  Antidépresseur,  Manger seul 	De 36 à 50 €	Vavin,  Raspail	48.8400354	2.3331826
114	Guilo Guilo	Restaurant	Paris	75018	8, rue Garreau		+33 1 42 54 23 92		Japonais,  Cuisine d'auteur	Fais-moi mal,  Manger seul 	Plus de 51 €	Abbesses	48.8859793	2.3371084999999994
115	Le Garde-Manger	Restaurant	Paris	75017	8, rue Meissonnier		+33 9 67 12 81 88		Casse-croûte,  Cuisine du marché,  Lèche-doigts	Ouvert le lundi,  Take-away,  Antidépresseur,  Terrasse,  Manger seul 	De 16 à 35 €	Wagram	48.8834223	2.30475279999996
116	Nhà-Quê	Restaurant	Paris	75011	20, rue du Général-Guilhem		Pas de téléphone. 		Asiatique,  Vietnamien	Ouvert le lundi,  Antidépresseur,  Manger seul 	De 16 à 35 €	Saint-Maur,  Saint-Ambroise	48.8620075	2.3796095999999807
117	Chameleon Restaurant	Restaurant	Paris	75010	70, rue René-Boulanger 		+33 1 42 08 99 41		Cuisine d'auteur,  Néobistrot	Ouvert le lundi,  Antidépresseur,  Faim de nuit,  Terrasse,  13 à table	De 16 à 35 €	République,  Jacques Bonsergent,  Strasbourg-Saint-Denis	48.86921700000001	2.358015499999965
118	Café Mirabelle	Restaurant	Paris	75011	16, rue La-Vacquerie		+33 1 43 79 27 46		Café / Coffee Shop,  Salon de thé / Pâtisserie	Ouvert le dimanche,  Antidépresseur,  Brunch,  Terrasse,  13 à table,  Manger seul 	De 16 à 35 €	Voltaire,  Philippe Auguste	48.85840719999999	2.384987899999942
119	Faggio Osteria	Restaurant	Paris	75009	75, rue de Rochechouart		+33 1 40 36 06 22		Italien	Ouvert le dimanche,  Ouvert le lundi,  Antidépresseur,  Faim de nuit,  Terrasse	De 36 à 50 €	Anvers	48.881484	2.346326900000008
120	Pilgrim	Restaurant	Paris	75015	8, rue Nicolas Charlet		+ 33 1 40 29 09 71		Cuisine d'auteur,  Néobistrot	Ouvert le lundi,  Antidépresseur,  Fais-moi mal	Plus de 51 €	Falguière,  Pasteur	48.8425052	2.313895099999968
121	Frenchie	Restaurant	Paris	75002	5, rue du Nil		+33 1 40 39 96 19		Cuisine d'auteur,  Néobistrot	Ouvert le lundi,  Antidépresseur,  Fais-moi mal	Plus de 51 €	Bonne Nouvelle,  Sentier,  Réaumur - Sébastopol	48.8677099	2.3479182999999466
122	Le Verre Volé	Restaurant	Paris	75010	67, rue de Lancry		+33 1 48 03 17 34		Bistrot,  Bar à vins / Cave à manger	Ouvert le dimanche,  Ouvert le lundi,  Antidépresseur,  Terrasse	De 16 à 35 €	Jacques Bonsergent,  Gare de l'Est	48.8728371	2.36343260000001
123	Clover Grill 	Restaurant	Paris	75001	6, rue Bailleul		+33 1 40 41 59 59		Néobistrot,  Viandes / Grillades	Ouvert le dimanche,  Ouvert le lundi,  Antidépresseur,  Fais-moi mal	Plus de 51 €	Louvre - Rivoli	48.86101679999999	2.341934100000003
124	Le Salon du Panthéon	Restaurant	Paris	75005	13, rue Victor Cousin		+33 1 56 24 88 80		Salon de thé / Pâtisserie	Ouvert le lundi,  Antidépresseur,  Terrasse,  Voir et se faire voir,  13 à table	De 16 à 35 €	Cluny - La Sorbonne,  Luxembourg	48.8475072	2.3422536
125	Lamée	Restaurant	Paris	75008	20 bis, rue La Boétie		+33 1 84 25 70 90		Sandwichs / Bagels,  Lèche-doigts	Ouvert le lundi,  Take-away,  Kid friendly,  Antidépresseur,  Faim de nuit,  Terrasse,  Voir et se faire voir,  Manger seul 	Moins de 15 €	Miromesnil	48.8741976	2.3164500999999973
126	Sur Mer	Restaurant	Paris	75010	53, rue de Lancry		+33 1 48 03 21 38		Poissons et fruits de mer	Ouvert le dimanche,  Ouvert le lundi,  Antidépresseur,  Terrasse,  Manger seul 	De 16 à 35 €	Jacques Bonsergent	48.8717101	2.362221599999998
127	Fulgurances, en face	Restaurant	Paris	75011	5, rue Alexandre-Dumas		+33 1 45 68 92 52		Planches / Assiettes froides,  Bar à vins / Cave à manger	Ouvert le lundi,  Antidépresseur,  Faim de nuit,  Manger seul 	De 16 à 35 €	Alexandre Dumas,  Charonne	48.8529714	2.389381299999968
128	Goguette	Restaurant	Paris	75011	108, rue Amelot		+33 9 54 74 16 36		Bistrot,  Bar à vins / Cave à manger	Ouvert le lundi,  Antidépresseur,  Terrasse,  13 à table	De 16 à 35 €	Filles du Calvaire	48.8630232	2.367425599999933
129	Café Ineko 	Restaurant	Paris	75003	13, rue des Gravilliers		+33 9 67 87 23 10		Café / Coffee Shop,  Cuisine du marché	Antidépresseur,  Manger seul 	De 16 à 35 €	Arts et Métiers,  Rambuteau	48.8635759	2.3572993000000224
130	La Bécane à Gaston	Restaurant	Paris	75010	24, rue Lucien-Sampaix		+33 9 80 73 22 98		Bistrot,  Cuisine du marché,  Viandes / Grillades	Ouvert le dimanche,  Antidépresseur,  Brunch	De 16 à 35 €	Jacques Bonsergent	48.8724579	2.3611859000000095
131	Raffinati	Restaurant	Paris	75018	74 ter, rue de Clignancourt		+ 33 9 83 54 57 29		Italien,  Lèche-doigts	Ouvert le lundi,  Take-away,  Terrasse,  Manger seul 	De 16 à 35 €	Marcadet-Poissonniers	48.88974409999999	2.3483942000000297
132	Le Jourdain	Restaurant	Paris	75020	101, rue des Couronnes		+33 1 43 66 29 10		Néobistrot	Ouvert le lundi,  Antidépresseur,  Faim de nuit,  Terrasse	De 16 à 35 €	Jourdain,  Pyrénées	48.8722047	2.389227500000061
133	Raviolis Nord-Est Saint-Denis	Restaurant	Paris	75001	115, rue Saint-Denis		+ 33 9 81 17 19 08		Asiatique,  Chinois	Ouvert le lundi,  Take-away,  Faim de nuit,  Manger seul 	Moins de 15 €	Les Halles,  Etienne Marcel	48.8628475	2.349533299999962
134	Le Bon Saint Pourçain	Restaurant	Paris	75006	10 bis, rue Servandoni		+33 1 42 01 78 24 		Bistrot	Terrasse,  Manger seul 	Plus de 51 €	Mabillon,  Odéon,  Saint-Sulpice	48.8500391	2.334594299999935
135	Agrology	Restaurant	Paris	75012	15, rue de Prague		+33 1 58 51 05 49		Bar à vins / Cave à manger	Take-away,  Antidépresseur	De 16 à 35 €	Ledru Rollin	48.84978659999999	2.3757074000000102
136	Boucherie Les Provinces	Restaurant	Paris	75012	20, rue d’Aligre		+33 1 43 43 91 64		Bistrot,  Viandes / Grillades	Ouvert le dimanche,  Antidépresseur,  13 à table	De 16 à 35 €	Faidherbe - Chaligny,  Ledru Rollin	48.8492775	2.3785976000000346
137	Non Solo Cucina	Restaurant	Paris	75016	135, rue du Ranelagh		+33 1 45 27 99 93		Italien	Antidépresseur,  Fais-moi mal	Plus de 51 €	Ranelagh	48.8563507	2.2668482000000267
138	Pizza di Loretta	Restaurant	Paris	75018	122, rue Caulaincourt			+ 33 6 87 87 30 30	Italien,  Pizzas,  Lèche-doigts	Ouvert le dimanche,  Take-away,  Kid friendly,  Terrasse	Moins de 15 €	Lamarck-Caulaincourt,  Jules Joffrin	48.8896263	2.3425825
139	Sando Club	Restaurant	Paris	75011	1-3, passage Thiéré		+ 33 9 82 59 50 33		Café / Coffee Shop,  Sandwichs / Bagels	Ouvert le dimanche,  Ouvert le lundi,  Antidépresseur,  Brunch,  Terrasse,  Manger seul 	De 16 à 35 €	Ledru Rollin,  Bastille	48.8532372	2.3749477999999726
140	Neni	Restaurant	Paris	75010	12, bd de Denain		+33 1 42 80 82 34		Israélien,  Balkanique	Ouvert le dimanche,  Ouvert le lundi,  Manger seul 	De 36 à 50 €	Gare du Nord	48.8795258	2.354939800000011
141	Presqu'Île	Restaurant	Paris	75007	57, rue de Bellechasse			+33 06 02 11 84 73 	Poissons et fruits de mer	Take-away,  Antidépresseur,  Terrasse	De 16 à 35 €	Rue du Bac,  Solférino,  Varenne	48.85507579999999	2.320126899999991
142	Hanoï Corner	Restaurant	Paris	75009	7, rue Blanche			+33 6 19 26 47 95	Asiatique,  Vietnamien,  Café / Coffee Shop,  Lèche-doigts	Ouvert le lundi,  Take-away,  Antidépresseur	Moins de 15 €	Trinité	48.8776569	2.3318355999999767
143	Willette	Restaurant	Paris	75009	21, rue de Trévise		+33 9 83 48 10 87		Bistrot	Antidépresseur,  Terrasse	De 16 à 35 €	Cadet,  Grands Boulevards	48.8739029	2.345223799999985
144	Augustin Marchand d'Vins	Restaurant	Paris	75006	26, rue des Grands-Augustins		+33 9 81 21 76 21		Bar à vins / Cave à manger	Ouvert le dimanche,  Take-away	De 16 à 35 €	Odéon,  Saint-Michel	48.85365969999999	2.340164200000004
145	Yansai 	Restaurant	Paris	75017	47, rue des Moines		+33 1 46 27 73 86		Asiatique,  Coréen	Ouvert le dimanche,  Kid friendly	Moins de 15 €	Brochant	48.8899963	2.3203906999999617
146	Aux Crus de Bourgogne 	Restaurant	Paris	75002	3, rue Bachaumont		+33 1 42 33 48 24		Bistrot	Ouvert le lundi,  Terrasse,  Manger seul 	De 36 à 50 €	Sentier	48.8658229	2.3464375999999447
147	Le Myrobolant	Restaurant	Paris	75011	140, rue Saint-Maur		+33 1 71 28 84 79		Cuisine du marché,  Néobistrot,  Bar à vins / Cave à manger	Kid friendly,  Antidépresseur,  Terrasse,  Manger seul 	De 16 à 35 €	Couronnes,  Goncourt,  Parmentier	48.86856	2.374911099999963
148	Miznon Grands Boulevards	Restaurant	Paris	75009	3, rue de la Grange Batelière		+33 9 71 43 71 96		Méditerranéen,  Lèche-doigts,  Israélien	Ouvert le dimanche,  Ouvert le lundi,  Take-away,  Antidépresseur,  Faim de nuit,  Terrasse,  Manger seul 	Moins de 15 €	Grands Boulevards,  Le Peletier	48.8728797	2.3425697999999784
149	Aglio e Olio	Restaurant	Paris	75011	5, rue Guillaume-Bertrand		+33 1 47 00 70 95		Italien	Terrasse,  Manger seul 	De 36 à 50 €	Rue Saint-Maur	48.8634143	2.379830800000036
150	Mercerie Mullot	Restaurant	Paris	75006	19, rue Bréa		+33 1 43 26 08 06		Cuisine d'auteur,  Néobistrot	Antidépresseur,  Terrasse,  Manger seul 	De 36 à 50 €	Notre-Dame des Champs,  Vavin	48.842922	2.3300279000000046
151	Délices de Qingdao	Restaurant	Paris	75009	3, rue de Budapest		+33 1 48 78 96 19		Chinois	Ouvert le lundi,  Manger seul 	De 16 à 35 €	Saint-Lazare	48.876066	2.327609700000039
152	Pouzenc	Restaurant	Paris	75012	67, rue de Charenton 		+ 33 9 53 52 32 90		Bistrot,  Cuisine du marché	Ouvert le lundi,  Terrasse	De 16 à 35 €	Ledru Rollin,  Bastille	48.8502834	2.3737171999999873
153	Cravan	Restaurant	Paris	75016	17, rue Jean-de-La-Fontaine		Pas de téléphone. 		Café / Coffee Shop,  Lèche-doigts	Ouvert le dimanche,  Ouvert le lundi,  Antidépresseur,  Terrasse,  Manger seul 	De 16 à 35 €	Jasmin,  Ranelagh	48.8516385	2.2738679000000275
154	Pages	Restaurant	Paris	75116	4, rue Auguste-Vacquerie		+33 1 47 20 74 94		Cuisine d'auteur	Fais-moi mal	Plus de 51 €	Kléber,  George V	48.8709292	2.2961456000000453
155	Bioburger	Restaurant	Paris	75002	45, rue des Petits Carreaux		01 42 86 15 09		Biocool,  Burgers	Ouvert le dimanche,  Ouvert le lundi,  Take-away,  Kid friendly,  Terrasse,  Manger seul 	Moins de 15 €	Bonne Nouvelle,  Sentier	48.8682289	2.347356399999967
156	Solstice	Restaurant	Paris	75005	45, rue Claude Bernard		+33 6 07 12 08 81		Cuisine d'auteur,  Néobistrot	Fais-moi mal	Plus de 51 €	Censier - Daubenton	48.84023879999999	2.3457714999999553
157	Desi Road 	Restaurant	Paris	75006	14, rue Dauphine		+33 1 43 26 44 91		Indien / Pakistanais / Sri-lankais	Ouvert le dimanche,  Ouvert le lundi,  Antidépresseur,  Manger seul 	De 36 à 50 €	Pont Neuf	48.8556872	2.339901999999938
158	Wadja	Restaurant	Paris	75006	10, rue de la Grande-Chaumière		+33 1 46 33 02 02		Néobistrot	Ouvert le lundi,  Antidépresseur,  Faim de nuit,  Manger seul 	De 36 à 50 €	Vavin	48.8423412	2.330701099999942
159	Les Tourteaux 	Restaurant	Paris	75008	86, rue la Boétie		+33 1 45 61 02 02		Tapas,  Poissons et fruits de mer	Manger seul 	De 16 à 35 €	Saint-Philippe-du-Roule	48.8725321	2.3095619000000625
160	Le Sot l'y Laisse	Restaurant	Paris	75011	70, rue Alexandre-Dumas		+33 1 40 09 79 20		Bistrot,  Cuisine d'auteur,  Cuisine du marché	Ouvert le lundi,  Antidépresseur	De 36 à 50 €	Alexandre Dumas,  Avron	48.8541035	2.395441900000037
161	La Cantine du Troquet Daguerre	Restaurant	Paris	75014	89, rue Daguerre		+33 1 43 20 20 09		Bistrot,  Basque,  Terroir	Ouvert le lundi,  Kid friendly,  Antidépresseur,  Terrasse,  Manger seul 	De 36 à 50 €	Gaîté,  Pernéty	48.8358289	2.3241563
162	Kokoya	Restaurant	Paris	75017	5, rue des Batignolles		+33 1 44 90 98 12		Asiatique,  Japonais	Ouvert le lundi,  Take-away,  Antidépresseur,  Manger seul 	De 16 à 35 €	Place de Clichy,  Rome	48.883239	2.323648
163	Coup de Tête	Restaurant	Paris	75019	107, rue de Belleville		+33 1 48 03 31 36		Bistrot,  Cuisine du marché	Kid friendly,  Antidépresseur,  Terrasse,  Manger seul 	De 16 à 35 €	Jourdain,  Pyrénées	48.874683	2.3868109000000004
164	Gangnam	Restaurant	Paris	75020	36, rue de Belleville		Pas de téléphone. 		Coréen,  Viandes / Grillades	Ouvert le dimanche,  Ouvert le lundi,  Take-away,  13 à table,  Manger seul 	De 16 à 35 €	Belleville,  Pyrénées	48.87274009999999	2.380429
165	116 Pages 	Restaurant	Paris	75116	2, rue Auguste-Vacquerie		+33 1 47 20 10 45		Japonais,  Tapas	Ouvert le lundi	De 16 à 35 €	Charles de Gaulle-Etoile,  Kléber,  George V	48.8709919	2.2963744
166	Gaya	Restaurant	Paris	75007	6, rue de Saint-Simon 		+33 1 45 44 73 73		Cuisine d'auteur,  Néobistrot,  Poissons et fruits de mer	Antidépresseur,  Terrasse,  Fais-moi mal	Plus de 51 €	Rue du Bac,  Solférino	48.8565779	2.323986800000057
167	Les Pères Populaires	Restaurant	Paris	75020	46, rue de Buzenval		+33 1 43 48 49 22		Café / Coffee Shop,  Cuisine du marché,  Bar à vins / Cave à manger	Ouvert le dimanche,  Ouvert le lundi,  Faim de nuit,  Terrasse,  13 à table	Moins de 15 €	Nation,  Avron,  Buzenval	48.8511345	2.4018248
168	Addommè	Restaurant	Paris	75003	26, rue Notre Dame de Nazareth		+33 9 83 27 63 80		Italien,  Pizzas	Take-away,  Terrasse,  Manger seul 	De 16 à 35 €	Temple,  République	48.867298	2.3599176999999827
169	Capitaine	Restaurant	Paris	75004	4, impasse Guéménée		+ 33 1 44 61 11 76		Cuisine d'auteur,  Néobistrot	Antidépresseur,  Terrasse	De 36 à 50 €	Bastille	48.8539878	2.3658242999999857
170	Sausalito	Restaurant	Paris	75009	80, rue de Maubeuge		+33 1 48 74 47 06		Bistrot,  Bar à vins / Cave à manger	Terrasse	De 16 à 35 €	Poissonnière,  Anvers	48.8791629	2.348244300000033
171	Oursin	Restaurant	Paris	75008	60, av. des Champs-Élysées		+33 1 83 65 61 02		Méditerranéen	Ouvert le dimanche,  Ouvert le lundi,  Manger seul 	Plus de 51 €	Franklin-D. Roosevelt,  Saint-Philippe-du-Roule,  George V	48.8704642	2.306304800000021
172	Supu Ramen	Restaurant	Paris	75006	53, quai des Grands Augustins		+33 1 43 25 45 94		Japonais	Ouvert le dimanche,  Ouvert le lundi,  Manger seul 	De 16 à 35 €	Odéon,  Saint-Michel - Notre-Dame	48.8552496	2.3412839999999733
173	Bambino	Restaurant	Paris	75011	25, rue Saint-Sébastien		+33 1 43 55 68 20		Méditerranéen,  Bar à vins / Cave à manger	Ouvert le dimanche,  Ouvert le lundi,  Antidépresseur,  Faim de nuit,  Voir et se faire voir	De 16 à 35 €	Saint-Sébastien-Froissart,  Saint-Ambroise,  Richard Lenoir	48.8613679	2.3698335999999927
174	Mandoobar	Restaurant	Paris	75008	7, rue d'Edimbourg		+33 1 55 06 08 53		Coréen	Take-away,  Antidépresseur,  Manger seul 	De 16 à 35 €	Europe,  Liège	48.8793433	2.3210914000000002
175	Il Brigante	Restaurant	Paris	75018	14, rue du Ruisseau		+33 1 44 92 72 15		Italien,  Pizzas	Ouvert le lundi,  Take-away,  Kid friendly,  Antidépresseur,  Faim de nuit,  Terrasse,  Manger seul 	De 16 à 35 €	Simplon	48.8921354	2.340116099999932
176	Bob’s Bake Shop	Restaurant	Paris	75018	Halle Pajol, 12, esplanade Nathalie-Sarraute		+33 9 84 46 25 26		Café / Coffee Shop,  Snack / Tartes / Salades / Soupes / Bols,  Végétarien,  Sandwichs / Bagels,  Américain	Ouvert le dimanche,  Ouvert le lundi,  Take-away,  Kid friendly,  Antidépresseur,  Brunch,  Terrasse,  Manger seul 	Moins de 15 €	Marx Dormoy	48.8886836	2.3630247999999483
177	La Vierge	Restaurant	Paris	75020	58, rue de la Réunion		+33 1 43 67 51 15		Bistrot,  Cuisine du marché,  Bar à vins / Cave à manger	Ouvert le dimanche,  Ouvert le lundi,  Antidépresseur,  Manger seul 	De 16 à 35 €	Avron,  Buzenval	48.8551624	2.4016291000000365
178	Lolo	Restaurant	Paris	75009	12, rue de Châteaudun				Tapas,  Bar à vins / Cave à manger	Antidépresseur,  Faim de nuit,  Manger seul 	De 16 à 35 €	Cadet,  Notre-Dame de Lorette,  Le Peletier	48.8760122	2.3404517
179	Bistrot Mee	Restaurant	Paris	75001	5, rue d'Argenteuil		+33 1 42 86 11 85			Ouvert le dimanche,  Ouvert le lundi,  Antidépresseur,  Manger seul 	De 16 à 35 €	Palais Royal-Musée du Louvre,  Pyramides	48.86438570000001	2.3338017999999465
180	Jin Saint-Honoré	Restaurant	Paris	75001	6, rue de la Sourdière		+33 1 42 61 60 71		Asiatique,  Japonais,  Sushis	Antidépresseur,  Fais-moi mal	Plus de 51 €	Pyramides,  Tuileries	48.86536779999999	2.331854900000053
181	À l’Epi d’Or	Restaurant	Paris	75001	25, rue Jean-Jacques Rousseau		+33 1 42 36 38 12		Bistrot	Antidépresseur,  Faim de nuit,  Voir et se faire voir,  Manger seul 	De 36 à 50 €	Palais Royal-Musée du Louvre,  Louvre - Rivoli,  Les Halles	48.863343	2.341151
182	Le Mermoz	Restaurant	Paris	75008	16, rue Jean Mermoz		+ 33 1 45 63 65 26		Cuisine d'auteur,  Néobistrot,  Bar à vins / Cave à manger	Ouvert le lundi,  Antidépresseur,  Manger seul 	De 36 à 50 €	Franklin-D. Roosevelt,  Saint-Philippe-du-Roule	48.8707146	2.3116
183	Bagnard Saintonge 	Restaurant	Paris	75003	58, rue de Saintonge		+33 1 55 43 90 47		Casse-croûte,  Cuisine du marché,  Méditerranéen	Ouvert le dimanche,  Take-away,  Antidépresseur,  Manger seul 	De 16 à 35 €	Filles du Calvaire,  Saint-Sébastien-Froissart	48.863197	2.36429720000001
184	PNY Marais	Restaurant	Paris	75003	1, rue Perrée		+33 9 83 78 69 34		Burgers,  Lèche-doigts	Ouvert le dimanche,  Ouvert le lundi,  Take-away,  Kid friendly,  Antidépresseur,  Faim de nuit,  Terrasse,  Manger seul 	De 16 à 35 €	Temple,  Filles du Calvaire	48.8637826	2.3625885000000153
185	L'Avant-Comptoir de la Terre	Restaurant	Paris	75006	3, carrefour de l’Odéon		+33 1 44 27 07 50		Sud-Ouest,  Terroir,  Planches / Assiettes froides,  Bar à vins / Cave à manger	Ouvert le dimanche,  Ouvert le lundi,  Antidépresseur,  13 à table,  Manger seul 	De 16 à 35 €	Odéon	48.8520358	2.3388124000000516
186	Hôtel Amour	Restaurant	Paris	75009	8, rue de Navarin		+33 1 48 78 31 80		Café / Coffee Shop,  Néobistrot,  Néobrasserie	Ouvert le dimanche,  Ouvert le lundi,  Kid friendly,  Faim de nuit,  Brunch,  Terrasse,  Voir et se faire voir	De 16 à 35 €	Pigalle,  Saint-Georges	48.87964299999999	2.339437099999941
187	Le Rigmarole	Restaurant	Paris	75011	10, rue du Grand Prieuré		+33 1 71 24 58 44		Cuisine d'auteur,  Néobistrot	Ouvert le dimanche,  Antidépresseur,  Faim de nuit	De 36 à 50 €	Oberkampf,  Parmentier	48.8652197	2.369255599999974
188	Etsi	Restaurant	Paris	75018	23-25, rue Eugène Carrière		+ 33 1 71 50 00 80		Tapas,  Grec,  Méditerranéen,  Végétarien	Ouvert le dimanche,  Antidépresseur,  Terrasse,  Manger seul 	De 16 à 35 €	Lamarck-Caulaincourt,  Guy Môquet	48.8903736	2.3328923999999915
189	B.O.U.L.O.M.	Restaurant	Paris	75018	181, rue Ordener		+33 1 46 06 64 20		Bistrot	Ouvert le dimanche,  Ouvert le lundi,  Kid friendly,  Antidépresseur,  Brunch,  13 à table	De 36 à 50 €	Lamarck-Caulaincourt,  Jules Joffrin,  Guy Môquet	48.8935876	2.3356451
190	Le Pinceau	Restaurant	Paris	75020	3, rue Denoyez		+33 9 81 08 30 35		Bistrot	Ouvert le dimanche,  Ouvert le lundi,  Antidépresseur,  Manger seul 	De 16 à 35 €	Belleville,  Couronnes	48.8711241	2.3786722
191	La Chope des Artistes 	Restaurant	Paris	75010	48, rue du Faubourg-Saint-Martin		+33 1 42 02 86 76		Bistrot,  Bar à vins / Cave à manger	Ouvert le dimanche,  Antidépresseur,  Terrasse	De 16 à 35 €	Jacques Bonsergent,  Château d'Eau,  Strasbourg-Saint-Denis	48.8706799	2.3567059
192	Haikara	Restaurant	Paris	75011	 82, rue de la Folie-Méricourt				Japonais	Antidépresseur,  Terrasse	De 16 à 35 €	République,  Oberkampf,  Parmentier	48.8663807	2.3701875
193	Gros Bao 	Restaurant	Paris	75010	72, quai de Jemmapes				Asiatique	Ouvert le dimanche,  Antidépresseur	De 16 à 35 €	République,  Jacques Bonsergent,  Goncourt	48.8714683	2.3657338
194	Bistrot Flaubert 	Restaurant	Paris	75017	10, rue Gustave-Flaubert		+33 1 42 67 05 81		Bistrot	Antidépresseur,  Terrasse,  Manger seul 	De 36 à 50 €	Ternes,  Pereire,  Courcelles	48.8814451	2.2987414
195	Robert 	Restaurant	Paris	75011	32, rue de la Fontaine-au-Roi		+33 1 43 57 20 29		Cuisine d'auteur,  Néobistrot	Antidépresseur	De 16 à 35 €	Goncourt,  Parmentier	48.8681354	2.3716508
196	Coyo Taco	Restaurant	Paris	75002	128, rue Réaumur				Mexicain,  Lèche-doigts	Ouvert le dimanche,  Ouvert le lundi,  Kid friendly,  Antidépresseur,  Faim de nuit,  Manger seul 	De 16 à 35 €	Bourse,  Grands Boulevards,  Sentier	48.86837149999999	2.3432602
197	Le Grand Bain	Restaurant	Paris	75020	14, rue Dénoyez		+33 9 83 02 72 02		Cuisine du marché,  Néobistrot,  Bar à vins / Cave à manger	Ouvert le dimanche,  Antidépresseur,  Faim de nuit,  Terrasse	De 36 à 50 €	Belleville	48.8716512	2.3785662999999886
198	Otium	Restaurant	Paris	75009	56, rue de la Rochefoucauld		+33 1 72 38 86 81		Biocool,  Snack / Tartes / Salades / Soupes / Bols,  Végétarien	Take-away,  Manger seul 	De 16 à 35 €	Pigalle,  Saint-Georges	48.88019389999999	2.336201699999947
199	Toraya	Restaurant	Paris	75001	10, rue Saint-Florentin 		+33 1 42 60 13 00		Asiatique,  Japonais,  Salon de thé / Pâtisserie	Ouvert le lundi,  Take-away,  Manger seul 	De 16 à 35 €	Concorde	48.8676221	2.32456209999998
200	CAM	Restaurant	Paris	75003	55, rue au Maire			+33 6 26 41 10 66	Chinois,  Cuisine d'auteur	Ouvert le dimanche,  Faim de nuit	De 16 à 35 €	Arts et Métiers	48.86488629999999	2.3547722000000704
201	Colorova	Restaurant	Paris	75006	47, rue de l'Abbé Grégoire		+33 1 45 44 67 56		Salon de thé / Pâtisserie	Ouvert le dimanche,  Take-away,  Antidépresseur,  Brunch	De 16 à 35 €	Sèvres - Babylone,  Rennes,  Saint-Placide	48.8469937	2.3260919
202	Quinsou	Restaurant	Paris	75006	33, rue de l’Abbé-Grégoire		+ 33 1 42 22 66 09		Cuisine d'auteur,  Néobistrot	Antidépresseur,  Voir et se faire voir,  Fais-moi mal,  Manger seul 	Plus de 51 €	Saint-Placide	48.84768099999999	2.3256013000000166
203	La Fontaine de Mars	Restaurant	Paris	75007	129, rue Saint-Dominique		+33 1 47 05 46 44 		Bistrot	Ouvert le dimanche,  Ouvert le lundi,  Faim de nuit,  Terrasse,  Fais-moi mal	Plus de 51 €	Ecole Militaire	48.8584043	2.302534899999955
204	Le Petit Pan	Restaurant	Paris	75015	18, rue Rosenwald		+33 1 42 50 04 04		Bar à vins / Cave à manger	Kid friendly,  Antidépresseur,  13 à table,  Manger seul 	De 16 à 35 €	Plaisance,  Convention	48.83321919999999	2.3057304999999815
205	Tripletta	Restaurant	Paris	75020	88, bd de Belleville		+ 33 1 42 54 72 80		Italien,  Pizzas	Ouvert le dimanche,  Ouvert le lundi,  Take-away,  Antidépresseur,  Terrasse	De 16 à 35 €	Couronnes	48.8702626	2.3794291000000385
206	Vivant 2	Restaurant	Paris	75010	43, rue des Petites-Écuries		+33 9 67 49 96 26		Cuisine d'auteur	Ouvert le lundi,  Antidépresseur,  Faim de nuit,  Terrasse,  Manger seul 	Plus de 51 €	Poissonnière,  Bonne Nouvelle,  Château d'Eau	48.8738436	2.3497837
207	Atelier Annam	Restaurant	Paris	75012	25, rue de Cotte		+33 1 43 41 70 91		Asiatique,  Vietnamien,  Lèche-doigts	Ouvert le lundi,  Manger seul 	Moins de 15 €	Faidherbe - Chaligny,  Ledru Rollin	48.8499389	2.377863199999979
208	Chez Michel	Restaurant	Paris	75010	10, rue de Belzunce		+33 1 44 53 06 20 		Bistrot,  Cuisine du marché	Ouvert le lundi,  13 à table	De 36 à 50 €	Poissonnière,  Gare du Nord	48.8795526	2.352264200000036
209	Coup d'Œil	Restaurant	Paris	75011	80, rue Sedaine		+ 33 1 43 57 59 68		Bar à vins / Cave à manger,  Lèche-doigts	Ouvert le dimanche,  Ouvert le lundi,  Antidépresseur,  Faim de nuit,  Manger seul 	De 16 à 35 €	Voltaire	48.8585222	2.3783968000000186
210	Laiterie Sainte Clotilde	Restaurant	Paris	75007	64, rue de Bellechasse		+33 1 45 51 74 61		Néobistrot	Ouvert le lundi,  Antidépresseur,  Faim de nuit,  Voir et se faire voir	De 16 à 35 €	Rue du Bac	48.8560971	2.3206337000000303
211	Coffee Club	Restaurant	Paris	75006	87, rue d'Assas		+33 1 43 29 87 87		Burgers,  Café / Coffee Shop,  Snack / Tartes / Salades / Soupes / Bols,  Américain	Ouvert le dimanche,  Ouvert le lundi,  Take-away,  Kid friendly,  Antidépresseur,  Brunch,  Terrasse,  Manger seul 	De 16 à 35 €	Vavin	48.8421196	2.335304899999983
212	Neva Cuisine	Restaurant	Paris	75008	2, rue de Berne		+33 1 45 22 18 91 		Néobistrot	Ouvert le lundi,  Terrasse	De 16 à 35 €	Rome,  Europe,  Liège	48.8801725	2.3240223
213	Sanjo	Restaurant	Paris	75001	29, rue d’Argenteuil		+33 1 43 43 23 98		Japonais	Ouvert le lundi,  Antidépresseur,  Manger seul 	De 16 à 35 €	Pyramides	48.8663375	2.333163099999979
214	Restaurant David Toutain	Restaurant	Paris	75007	29 Rue Surcouf		+33 1 45 50 11 10		Cuisine d'auteur,  Néobistrot	Ouvert le lundi,  Take-away,  Fais-moi mal	Plus de 51 €	La Tour-Maubourg	48.8602571	2.3097285000000056
215	Tempilenti	Restaurant	Paris	75011	13, rue Gerbier		+ 33 9 81 01 81 10		Italien	Ouvert le dimanche,  Ouvert le lundi,  Antidépresseur,  Manger seul 	De 16 à 35 €	Voltaire,  Philippe Auguste	48.8587465	2.3859692999999425
216	L'Arbre Jaune	Restaurant	Paris	75011	96, rue Jean-Pierre-Timbaud		+33 1 83 92 50 06		Bistrot	Ouvert le dimanche,  Antidépresseur,  Faim de nuit,  Brunch,  Terrasse	De 16 à 35 €	Couronnes	48.8677734	2.377981699999964
217	Sauvage	Restaurant	Paris	75006	55, rue du Cherche-Midi		+ 33 1 45 48 86 79		Néobistrot	Antidépresseur,  Terrasse,  Manger seul 	De 36 à 50 €	Saint-Placide,  Vaneau	48.8486142	2.3250676000000112
218	Mimi	Restaurant	Paris	75006	105, rue du Cherche-Midi		+33 1 83 89 52 85		Italien	Antidépresseur,  Manger seul 	De 16 à 35 €	Falguière	48.8463326	2.3207016000000067
219	Le Martel 	Restaurant	Paris	75010	3, rue Martel 		+33 1 47 70 67 56		Maghreb,  Bistrot,  Cuisine du marché	Ouvert le lundi,  Antidépresseur,  Terrasse	De 16 à 35 €	Château d'Eau	48.8736766	2.352760900000021
220	Buffet	Restaurant	Paris	75011	8, rue de la Main-d’Or		+33 1 83 89 63 82		Bistrot,  Bar à vins / Cave à manger	Antidépresseur	De 16 à 35 €	Ledru Rollin,  Charonne	48.8517011	2.3782306000000517
221	Birdie Num Num	Restaurant	Paris	75018	87, rue Lamarck		+33 1 42 58 07 29		Café / Coffee Shop,  Sandwichs / Bagels,  Lèche-doigts	Take-away,  Kid friendly,  Manger seul 	Moins de 15 €	Lamarck-Caulaincourt	48.8903015	2.3355179000000135
222	Ob-La-Di	Restaurant	Paris	75003	54, rue de Saintonge		Pas de téléphone.		Café / Coffee Shop	Ouvert le dimanche,  Take-away,  Antidépresseur,  Terrasse,  Manger seul 	Moins de 15 €	Filles du Calvaire	48.8629889	2.3640720999999303
223	L'Arpège	Restaurant	Paris	75007	84, rue de Varenne		+33 1 47 05 09 06		Cuisine d'auteur	Ouvert le lundi,  Antidépresseur,  Fais-moi mal	Plus de 51 €	La Tour-Maubourg,  Varenne	48.8557617	2.3170924999999443
224	Suave	Restaurant	Paris	75013	20, rue de la Providence		+33 1 45 89 99 27		Asiatique,  Vietnamien	Ouvert le lundi,  Take-away,  Antidépresseur,  Manger seul 	De 16 à 35 €	Tolbiac,  Corvisart,  Glacière	48.8260187	2.347776100000033
225	Café Noisette 	Restaurant	Paris	75015	74, rue Olivier-de-Serres		+33 1 45 35 86 21		Bistrot,  Cuisine du marché,  Tapas	Ouvert le lundi,  Antidépresseur,  Terrasse,  13 à table,  Manger seul 	De 16 à 35 €	Convention	48.8335219	2.2944658000000118
226	Le 975	Restaurant	Paris	75017	25, rue Guy-Môquet		+33 9 53 75 67 71		Cuisine d'auteur,  Néobistrot	Ouvert le lundi,  Antidépresseur	De 36 à 50 €	Brochant	48.8920444	2.3224471999999423
227	Ober Mamma	Restaurant	Paris	75011	107, boulevard Richard Lenoir		+33 1 58 30 62 78		Italien	Ouvert le dimanche,  Ouvert le lundi,  Terrasse,  Voir et se faire voir	De 16 à 35 €	Oberkampf	48.8644061	2.3700129
228	Vantre	Restaurant	Paris	75011	19, rue de la Fontaine-au-Roi		+33 1 48 06 16 96		Néobistrot	Ouvert le lundi	De 36 à 50 €	Goncourt	48.8685434	2.3702362999999878
229	Anima	Restaurant	Paris	75006	78, rue du Cherche-Midi		+33 1 40 47 90 41		Italien,  Pizzas	Ouvert le dimanche,  Ouvert le lundi,  Antidépresseur,  Faim de nuit	De 36 à 50 €	Rennes,  Saint-Placide,  Vaneau	48.848057	2.3234423000000106
230	Ibrik Kitchen	Restaurant	Paris	75002	9, rue de Mulhouse		+33 1 70 69 42 50		Roumain,  Balkanique	Ouvert le dimanche,  Antidépresseur,  Brunch,  Terrasse,  13 à table,  Manger seul 	De 36 à 50 €	Bonne Nouvelle,  Sentier	48.8686809	2.3465059999999767
231	Bricktop	Restaurant	Paris	75010	153, quai de Valmy		+33 9 67 44 60 71		Italien,  Pizzas	Ouvert le dimanche,  Ouvert le lundi,  Take-away,  Antidépresseur,  Terrasse	Moins de 15 €	Château Landon,  Colonel Fabien	48.8780483	2.365559800000028
232	La Maison du Caviar	Restaurant	Paris	75008	21, rue Quentin-Bauchart		+33 1 47 23 53 43		Nourritures mondaines	Ouvert le dimanche,  Ouvert le lundi,  Terrasse,  Voir et se faire voir,  Fais-moi mal,  Manger seul 	Plus de 51 €	Franklin-D. Roosevelt,  George V	48.87057970000001	2.301603
233	Magnà	Restaurant	Paris	75009	48, rue Notre Dame de Lorette		+33 1 44 63 89 09		Italien,  Pizzas,  Lèche-doigts	Ouvert le lundi,  Take-away,  Kid friendly,  Antidépresseur	Moins de 15 €	Saint-Georges	48.8795918	2.3362627000000202
234	Atelier Auger	Restaurant	Paris	75020	5, rue Auger		+33 9 87 59 88 65		Café / Coffee Shop,  Snack / Tartes / Salades / Soupes / Bols,  Viandes / Grillades,  Sandwichs / Bagels	Take-away,  Manger seul 	De 16 à 35 €	Avron,  Buzenval	48.8510629	2.3991708999999446
235	Minh Chau	Restaurant	Paris	75004	10, rue de la Verrerie		+33 1 42 71 13 30 		Vietnamien	Ouvert le lundi,  Take-away,  Manger seul 	Moins de 15 €	Hôtel de Ville	48.857285	2.3552393999999595
236	Ippudo	Restaurant	Paris	75001	74-76, rue Jean-Jacques-Rousseau		+33 1 42 86 09 85		Japonais	Ouvert le dimanche,  Ouvert le lundi,  Terrasse,  Manger seul 	De 16 à 35 €	Châtelet - Les Halles,  Les Halles,  Etienne Marcel,  Châtelet	48.8645489	2.3446456000000353
237	Pavillon aux Pivoines	Restaurant	Paris	75020	21, rue des Couronnes		+33 1 43 64 89 79		Asiatique,  Chinois	Ouvert le dimanche,  Take-away,  Kid friendly,  Antidépresseur,  13 à table,  Manger seul 	De 16 à 35 €	Couronnes	48.8697767	2.3824869000000035
238	Berty	Restaurant	Paris	75013	124, bd. Vincent Auriol  		+33 9 80 72 16 46		Cuisine d'auteur,  Cuisine du marché,  Néobistrot	Ouvert le lundi	De 16 à 35 €	Nationale	48.8333041	2.3624293999999963
239	Özlem 	Restaurant	Paris	75010	57, rue des Petites-Ecuries		+33 1 47 70 37 87		Lèche-doigts,  Turc	Ouvert le lundi,  Antidépresseur,  Manger seul 	Moins de 15 €	Poissonnière,  Bonne Nouvelle,  Cadet,  Château d'Eau	48.8738248	2.348571399999969
240	Le Verbalon	Restaurant	Paris	75013	198 bis, rue de Tolbiac		+33 1 42 46 63 14		Néobistrot	Ouvert le lundi,  Terrasse,  Manger seul 	De 16 à 35 €	Tolbiac,  Corvisart	48.8258798	2.348772199999985
241	Rond	Restaurant	Paris	75020	21, rue du Transvaal		 +33 9 87 58 75 06		Crêperie	Kid friendly,  Antidépresseur,  Brunch,  Terrasse,  13 à table,  Manger seul 	Moins de 15 €	Pyrénées,  Couronnes	48.87177140000001	2.3877392
242	Cibus	Restaurant	Paris	75001	5, rue Molière		+33 1 42 61 50 19		Italien,  Nourritures mondaines	Ouvert le lundi,  Antidépresseur,  Voir et se faire voir,  Fais-moi mal,  Manger seul 	Plus de 51 €	Palais Royal-Musée du Louvre,  Pyramides	48.864901	2.3355960000000096
243	Mr Zhao	Restaurant	Paris	75002	37, rue des Jeûneurs		Tél. : +33 1 73 74 94 05		Chinois	Ouvert le lundi,  Take-away,  Manger seul 	Moins de 15 €	Bourse,  Grands Boulevards	48.8696583	2.3435978999999634
244	Racines des Prés	Restaurant	Paris	75007	1, rue de Gribeauval		+33 1 45 48 14 16		Cuisine d'auteur,  Néobistrot	Ouvert le lundi,  Antidépresseur,  Terrasse	De 36 à 50 €	Rue du Bac	48.8561495	2.327197
245	Oinari	Restaurant	Paris	75009	47 Rue Condorcet		+33 1 40 35 90 05		Japonais,  Sushis	Ouvert le lundi,  Take-away,  Terrasse,  Manger seul 	De 16 à 35 €	Anvers	48.88002179999999	2.343351900000016
246	Urfa Dürüm 	Restaurant	Paris	75010	58, rue du Faubourg-Saint-Denis		+33 1 48 24 12 84		Lèche-doigts,  Kurde	Ouvert le dimanche,  Ouvert le lundi,  Take-away,  Antidépresseur,  Faim de nuit,  Terrasse,  Manger seul 	Moins de 15 €	Château d'Eau	48.8723772	2.354262800000015
247	L'Imperial de Choisy 	Restaurant	Paris	75013	32, avenue de Choisy		+33 1 45 86 42 40		Asiatique,  Chinois	Ouvert le dimanche,  Ouvert le lundi,  Terrasse,  13 à table,  Manger seul 	De 16 à 35 €	Maison Blanche,  Porte d'Ivry,  Porte de Choisy	48.8222487	2.36317710000003
248	Bonvivant	Restaurant	Paris	75005	7, rue des Écoles		+33 1 43 26 51 34		Bistrot,  Planches / Assiettes froides,  Bar à vins / Cave à manger	Ouvert le dimanche,  Ouvert le lundi,  Antidépresseur,  Faim de nuit,  Terrasse	De 36 à 50 €	Cardinal Lemoine,  Jussieu	48.8475192	2.351970299999948
249	Atelier Mala	Restaurant	Paris	75009	56, rue Notre Dame de Lorette		+33 1 40 34 10 37		Chinois	Take-away,  Antidépresseur,  Terrasse	Moins de 15 €	Pigalle,  Saint-Georges	48.8799791	2.3361181000000215
250	Circus Bakery	Restaurant	Paris	75005	63, rue Galande		Pas de téléphone. 		Lèche-doigts	Ouvert le dimanche,  Ouvert le lundi,  Take-away	Moins de 15 €	Cluny - La Sorbonne,  Maubert - Mutualité	48.8516784	2.3466548000000103
251	Galerna	Restaurant	Paris	75020	7, rue du Cher		+33 9 81 29 27 12		Espagnol,  Bistrot,  Tapas,  Basque	Antidépresseur,  Manger seul 	De 16 à 35 €	Gambetta	48.8645176	2.4000191000000086
252	Grillé	Restaurant	Paris	75002	15, rue Saint-Augustin		+33 1 42 96 10 64		Kebabs,  Sandwichs / Bagels,  Lèche-doigts	Ouvert le lundi,  Take-away,  Terrasse,  Manger seul 	Moins de 15 €	Quatre Septembre	48.8687188	2.3365086999999676
253	Le Café de Mars	Restaurant	Paris	75007	11, rue Augereau		+33 1 45 50 10 90		Néobistrot	Antidépresseur,  Terrasse	De 16 à 35 €	Ecole Militaire	48.8574387	2.3021139
254	Mulino Mulè	Restaurant	Paris	75010	25, rue Sainte-Marthe		+33 9 54 75 92 07		Italien	Take-away,  Antidépresseur,  Terrasse,  Manger seul 	De 16 à 35 €	Belleville,  Goncourt,  Colonel Fabien	48.874196	2.372335900000053
255	Libertino	Restaurant	Paris	75010	44, rue de Paradis				Italien,  Pizzas	Ouvert le dimanche,  Ouvert le lundi,  13 à table	De 16 à 35 €	Poissonnière,  Cadet	48.8755484	2.3502117000000453
256	Lao Siam 	Restaurant	Paris	75019	49, rue de Belleville		+33 1 40 40 09 68		Asiatique,  Laotien,  Thaïlandais	Ouvert le dimanche,  Ouvert le lundi,  Kid friendly,  Faim de nuit,  13 à table	De 16 à 35 €	Belleville	48.8731455	2.3809340000000248
257	Liquiderie Bar	Restaurant	Paris	75011	7, rue de la Présentation		+33 9 72 91 36 77		Bar à vins / Cave à manger	Ouvert le dimanche,  Antidépresseur,  Faim de nuit,  Manger seul 	De 16 à 35 €	Belleville	48.8709815	2.3768053
258	La Cantine Merci	Restaurant	Paris	75003	111, bd Beaumarchais		+33 1 42 77 79 28		Café / Coffee Shop,  Salon de thé / Pâtisserie,  Snack / Tartes / Salades / Soupes / Bols	Ouvert le lundi,  Take-away,  Kid friendly,  Voir et se faire voir,  Manger seul 	De 16 à 35 €	Saint-Sébastien-Froissart	48.8606901	2.3666584999999714
259	Le Bar des Prés	Restaurant	Paris	75006	25, rue du Dragon		+33 1 43 25 87 67		Japonais	Ouvert le dimanche,  Ouvert le lundi,  Antidépresseur,  Faim de nuit,  Voir et se faire voir,  Fais-moi mal,  Manger seul 	Plus de 51 €	Saint-Germain des Prés	48.8527632	2.3306526999999733
260	Tomy & Co	Restaurant	Paris	75007	22, rue Surcouf		+33 1 45 51 46 93 		Cuisine d'auteur,  Cuisine du marché,  Néobistrot	Ouvert le lundi	De 36 à 50 €	Invalides,  La Tour-Maubourg	48.8605056	2.309415100000024
261	Belle Maison	Restaurant	Paris	75009	4, rue de Navarin		+33 1 42 81 11 00		Néobistrot,  Poissons et fruits de mer	Antidépresseur,  Terrasse	De 36 à 50 €	Pigalle,  Saint-Georges	48.8795864	2.339562800000067
262	Abri Soba	Restaurant	Paris	75009	10, rue Saulnier		+33 1 45 23 51 68		Asiatique,  Japonais	Ouvert le dimanche,  Antidépresseur	De 16 à 35 €	Cadet	48.8749761	2.3445619999999963
263	Chez Casimir	Restaurant	Paris	75010	6, rue de Belzunce		+33 1 48 78 28 80		Bistrot,  Cuisine du marché	Ouvert le dimanche,  Ouvert le lundi,  Faim de nuit,  Brunch,  Terrasse,  13 à table	De 16 à 35 €	Poissonnière,  Gare du Nord	48.87940889999999	2.3525935999999774
264	Nanina	Restaurant	Paris	75011	24, rue Basfroi			+33 7 78 46 46 36	Sandwichs / Bagels,  Planches / Assiettes froides	Ouvert le dimanche,  Kid friendly,  Antidépresseur,  Terrasse,  Manger seul 	Moins de 15 €	Voltaire,  Charonne	48.8548012	2.3795086000000083
265	Le Severo	Restaurant	Paris	75014	8, rue des Plantes		+33 1 45 40 40 91		Bistrot,  Viandes / Grillades	Ouvert le lundi,  Antidépresseur,  Manger seul 	De 36 à 50 €	Mouton-Duvernet	48.8319967	2.324574900000016
266	Le Grand Pan	Restaurant	Paris	75015	20, rue Rosenwald		+33 1 42 50 02 50		Bistrot	Ouvert le lundi,  Kid friendly,  Antidépresseur,  Manger seul 	De 36 à 50 €	Plaisance,  Convention	48.8330872	2.3057430999999724
267	Girafe	Restaurant	Paris	75016	1, place du Trocadéro		+33 1 40 62 70 61		Nourritures mondaines,  Poissons et fruits de mer	Ouvert le dimanche,  Ouvert le lundi,  Terrasse,  Voir et se faire voir,  Fais-moi mal	Plus de 51 €	Trocadéro	48.8627153	2.288473500000009
268	Au Petit Panisse	Restaurant	Paris	75011	35, rue de Montreuil		+33 1 43 71 37 90		Bistrot,  Café / Coffee Shop,  Bar à vins / Cave à manger	Ouvert le dimanche,  Ouvert le lundi,  Antidépresseur,  Terrasse,  Manger seul 	De 16 à 35 €	Faidherbe - Chaligny,  Rue des Boulets 	48.8505542	2.3866997000000083
269	Frenchie To Go	Restaurant	Paris	75002	9, rue du Nil		+33 1 42 21 96 92		Sandwichs / Bagels,  Lèche-doigts	Ouvert le dimanche,  Ouvert le lundi,  Take-away,  Antidépresseur,  Terrasse,  Manger seul 	De 16 à 35 €	Sentier	48.8675898	2.3475720999999794
270	La Traversée	Restaurant	Paris	75018	2, rue Ramey		+33 9 54 86 79 95		Néobistrot,  Bar à vins / Cave à manger	Ouvert le lundi,  Antidépresseur,  Terrasse,  Manger seul 	De 16 à 35 €	Château Rouge	48.8872645	2.3475985999999693
271	Le Dénicheur	Restaurant	Paris	75002	4, rue Tiquetonne		+33 1 42 21 31 01		Bistrot,  Bar à vins / Cave à manger	Ouvert le dimanche,  Ouvert le lundi,  Antidépresseur,  Terrasse	De 16 à 35 €	Etienne Marcel,  Réaumur - Sébastopol	48.8644859	2.3497363
272	Le Gentil	Restaurant	Paris	75007	26, rue Surcouf		+33 9 52 27 01 36		Néobistrot	Ouvert le lundi,  Antidépresseur	De 36 à 50 €	La Tour-Maubourg	48.8602547	2.3094314
273	Pianoterra	Restaurant	Paris	75011	49, rue Popincourt		 + 33 1 71 60 96 27		Italien	Ouvert le lundi,  Antidépresseur,  Manger seul 	De 16 à 35 €	Voltaire,  Saint-Ambroise,  Richard Lenoir	48.8596857	2.3756582
274	La Boucherie Grégoire	Restaurant	Paris	75006	29, rue de l’Abbé-Grégoire		+33 1 42 22 58 41		Bistrot,  Hot-dogs,  Lèche-doigts	Take-away,  Antidépresseur,  Terrasse,  Manger seul 	De 16 à 35 €	Rennes,  Saint-Placide	48.8479257	2.3253462
275	Marchon	Restaurant	Paris	75011	161, rue Saint-Maur		+33 1 47 00 63 97		Néobistrot	Ouvert le dimanche,  Ouvert le lundi,  Antidépresseur,  Terrasse	De 36 à 50 €	Belleville,  Couronnes,  Goncourt,  Parmentier	48.8689411	2.3741713
276	Papi	Restaurant	Paris	75009	46, rue Richer		+33 1 71 27 77 65		Japonais,  Italien,  Pizzas	Ouvert le lundi,  Antidépresseur,  Manger seul 	De 36 à 50 €	Cadet,  Grands Boulevards,  Le Peletier	48.8742009	2.3437086
277	Penny Lane 	Restaurant	Paris	75010	18, rue du Faubourg-Poissonnière				Snack / Tartes / Salades / Soupes / Bols,  Lèche-doigts	Ouvert le lundi,  Take-away,  Antidépresseur,  Terrasse,  Manger seul 	De 16 à 35 €	Bonne Nouvelle,  Grands Boulevards	48.8720715	2.3480172
278	Chez la Vieille	Restaurant	Paris	75001	1, rue Bailleul		+33 1 42 60 15 78		Bistrot	Antidépresseur	De 16 à 35 €	Louvre - Rivoli	48.8609056	2.3423270000000684
279	Sola	Restaurant	Paris	75005	12, rue de l'Hôtel Colbert		+33 1 42 02 39 24		Asiatique,  Japonais,  Cuisine d'auteur	Fais-moi mal	Plus de 51 €	Cluny - La Sorbonne,  Maubert - Mutualité	48.8516132	2.3482611
280	Yafo	Restaurant	Paris	75010	96, rue d'Hauteville		Pas de téléphone.		Lèche-doigts,  Israélien	Ouvert le lundi,  Take-away,  Antidépresseur,  Terrasse,  Manger seul 	Moins de 15 €	Poissonnière	48.8773422	2.351675099999966
281	Marrow	Restaurant	Paris	75010	128, rue du Faubourg-Saint-Martin		+33 9 81 34 57 00		Néobistrot,  Bar à vins / Cave à manger	Antidépresseur,  Faim de nuit,  Terrasse,  13 à table	De 16 à 35 €	Gare de l'Est	48.8743883	2.3589067999999997
282	Elmer l'Epicerie 	Restaurant	Paris	75003	19, rue Notre-Dame-de-Nazareth		+33 1 40 09 80 47		Sandwichs / Bagels,  Planches / Assiettes froides,  Bar à vins / Cave à manger	Take-away,  Antidépresseur,  Faim de nuit,  Manger seul 	Moins de 15 €	Temple	48.8672042	2.359798400000045
283	Café du Coin	Restaurant	Paris	75011	9, rue Camille-Desmoulins		+ 33 1 48 04 82 46		Bistrot,  Bar à vins / Cave à manger	Ouvert le dimanche,  Ouvert le lundi,  Antidépresseur,  Manger seul 	De 16 à 35 €	Voltaire	48.8590191	2.3809707000000344
284	Le Cadoret	Restaurant	Paris	75019	1, rue Pradier		+ 33 1 53 21 92 13		Bistrot,  Café / Coffee Shop,  Bar à vins / Cave à manger	Antidépresseur,  Terrasse,  Manger seul 	De 16 à 35 €	Pyrénées,  Buttes Chaumont	48.8747784	2.38106700000003
285	Le Petit Cambodge	Restaurant	Paris	75010	20, rue Alibert		+33 1 42 45 80 88		Asiatique,  Cambodgien	Ouvert le dimanche,  Ouvert le lundi,  Take-away,  Kid friendly,  Terrasse,  Manger seul 	De 16 à 35 €	Goncourt	48.8716721	2.368088299999954
286	Sanukiya 	Restaurant	Paris	75001	9, rue d'Argenteuil		+33 1 42 60 52 61		Japonais	Ouvert le dimanche,  Ouvert le lundi,  Take-away,  Terrasse,  Manger seul 	De 16 à 35 €	Palais Royal-Musée du Louvre,  Pyramides	48.8649003	2.333713200000034
287	La Cantine du Troquet Cherche-Midi	Restaurant	Paris	75006	79, rue du Cherche-Midi		+33 1 43 27 70 06		Bistrot,  Cuisine du marché,  Basque,  Terroir	Ouvert le dimanche,  Ouvert le lundi,  Antidépresseur,  Terrasse,  Manger seul 	De 36 à 50 €	Saint-Placide,  Vaneau	48.847715	2.3233374999999796
288	Le Petit Varenne	Restaurant	Paris	75007	57 Rue de Bellechasse		+ 33 1 42 73 60 72		Bistrot	Ouvert le lundi,  Antidépresseur,  Terrasse	De 36 à 50 €	Rue du Bac,  Solférino,  Varenne	48.85507579999999	2.320126899999991
289	Honor Café	Restaurant	Paris	75008	54, rue du Faubourg-Saint-Honoré		+33 7 82 52 93 63		Café / Coffee Shop,  Salon de thé / Pâtisserie,  Lèche-doigts	Ouvert le lundi,  Take-away,  Kid friendly,  Brunch,  Terrasse,  Manger seul 	Moins de 15 €	Concorde,  Madeleine	48.8695885	2.3196957999999768
290	Les Arlots	Restaurant	Paris	75010	136, rue du Faubourg-Poissonnière		+ 33 1 42 82 92 01		Bistrot,  Bar à vins / Cave à manger	Antidépresseur,  Manger seul 	De 36 à 50 €	Barbès - Rochechouart,  Poissonnière,  Gare du Nord	48.8806409	2.350058699999977
291	Da Vito	Restaurant	Paris	75011	5, rue Sedaine		+33 9 50 73 12 99		Pizzas	Ouvert le dimanche,  Ouvert le lundi,  Take-away,  Kid friendly,  Terrasse,  Manger seul 	Moins de 15 €	Bréguet - Sabin	48.8557066	2.371193700000049
292	Thieng Heng	Restaurant	Paris	75013	50, avenue d’Ivry  		+33 1 45 82 92 95		Asiatique,  Vietnamien,  Sandwichs / Bagels,  Lèche-doigts	Ouvert le dimanche,  Ouvert le lundi,  Take-away,  Manger seul 	Moins de 15 €	Olympiades,  Maison Blanche,  Porte d'Ivry	48.8237442	2.365282200000024
293	Café Chilango	Restaurant	Paris	75011	82, rue de la Folie-Méricourt		+33 1 47 00 78 95		Mexicain,  Lèche-doigts	Ouvert le dimanche,  Ouvert le lundi,  Kid friendly,  Antidépresseur,  Faim de nuit,  Brunch,  Manger seul 	Moins de 15 €	République,  Parmentier	48.8663807	2.370187499999929
294	Amici Miei	Restaurant	Paris	75011	44, rue Saint-Sabin 		+33 1 42 71 82 62		Italien,  Pizzas	Take-away,  Antidépresseur,  Terrasse	De 16 à 35 €	Bréguet - Sabin,  Chemin Vert	48.8582154	2.3693737
295	PNY Fbg Saint-Denis	Restaurant	Paris	75010	50, rue du Faubourg Saint-Denis		+33 1 47 70 15 24		Burgers,  Lèche-doigts	Ouvert le dimanche,  Ouvert le lundi,  Take-away,  Kid friendly,  Antidépresseur,  Terrasse	Moins de 15 €	Gare de l'Est,  Château d'Eau,  Strasbourg-Saint-Denis	48.8719023	2.353993800000012
296	Massale	Restaurant	Paris	75011	5, rue Guillaume Bertrand		+ 33 1 73 79 87 90		Néobistrot,  Bar à vins / Cave à manger	Ouvert le lundi,  Manger seul 	De 36 à 50 €	Saint-Maur	48.8634143	2.379830800000036
297	Dilia	Restaurant	Paris	75020	1, rue d’Eupatoria		+33 9 53 56 24 14		Cuisine d'auteur,  Italien,  Néobistrot	Ouvert le dimanche,  Ouvert le lundi,  Antidépresseur,  Terrasse,  Manger seul 	De 36 à 50 €	Couronnes,  Ménilmontant	48.8686477	2.3862020000000257
298	Echizen Soba Togo	Restaurant	Paris	75001	33, rue Saint-Roch		+33 1 73 71 69 23		Japonais	Ouvert le lundi,  Antidépresseur,  Manger seul 	De 16 à 35 €	Pyramides,  Tuileries	48.8659805	2.332610299999942
299	Kura	Restaurant	Paris	75016	56, rue de Boulainvilliers		+33 1 45 20 18 32 		Asiatique,  Japonais,  Sushis,  Cuisine d'auteur	Ouvert le dimanche,  Terrasse,  Fais-moi mal	De 36 à 50 €	La Muette	48.8573238	2.275216099999966
300	Pizza Chic	Restaurant	Paris	75006	13, rue de Mézières		+33 1 45 48 30 38		Italien,  Pizzas	Ouvert le dimanche,  Ouvert le lundi,  Take-away,  Antidépresseur,  Voir et se faire voir	De 16 à 35 €	Saint-Sulpice	48.8501939	2.3305947999999717
301	Le Ruisseau	Restaurant	Paris	75018	65, rue du Ruisseau		+33 1 42 23 31 23		Burgers,  Lèche-doigts	Ouvert le dimanche,  Ouvert le lundi,  Take-away,  Kid friendly,  Brunch,  Terrasse,  Manger seul 	Moins de 15 €	Jules Joffrin	48.89445	2.3405290000000605
302	Chez Justine	Restaurant	Paris	75011	96, rue Oberkampf		+ 33 1 43 57 44 03		Brasserie,  Pizzas	Ouvert le dimanche,  Ouvert le lundi,  Take-away,  Kid friendly,  Brunch,  13 à table	De 16 à 35 €	Parmentier	48.8656838	2.377854999999954
303	La Felicità	Restaurant	Paris	75013	55, boulevard Vincent-Auriol	Place Grace-Murray-Hopper	Pas de téléphone		Burgers,  Italien,  Pizzas,  Viandes / Grillades,  Planches / Assiettes froides	Ouvert le dimanche,  Ouvert le lundi,  Take-away,  Kid friendly,  Antidépresseur,  Brunch,  Terrasse,  13 à table,  Manger seul 	De 16 à 35 €	Chevaleret,  Campo Formio	48.8336874	2.371536600000013
304	Sellae	Restaurant	Paris	75013	18, rue des Wallons		+33 1 43 31 36 04		Néobistrot	Terrasse	De 36 à 50 €	Saint-Marcel	48.838707	2.3596089999999776
305	L'Entente	Restaurant	Paris	75002	13, rue Monsigny		+33 1 47 42 92 35		Néobrasserie	Ouvert le dimanche,  Ouvert le lundi,  Faim de nuit,  Brunch,  Terrasse	De 36 à 50 €	Quatre Septembre	48.8691377	2.3353950000000623
306	Le Saint Sébastien	Restaurant	Paris	75011	42, rue Saint-Sébastien			+33 6 49 75 27 90	Cuisine d'auteur,  Néobistrot	Ouvert le lundi,  Antidépresseur	De 36 à 50 €	Saint-Ambroise,  Richard Lenoir	48.8615124	2.3710433999999623
307	Racines	Restaurant	Paris	75002	8, passage des Panoramas		+ 33 1 40 13 06 41		Bistrot,  Italien	Ouvert le dimanche,  Ouvert le lundi,  Antidépresseur,  Terrasse	De 36 à 50 €	Grands Boulevards,  Richelieu - Drouot	48.87125160000001	2.3418543000000227
308	Marzo Rive Droite	Restaurant	Paris	75116	84, rue Lauriston		+33 1 45 05 51 78		Italien,  Pizzas	Ouvert le dimanche,  Ouvert le lundi,  Take-away,  Antidépresseur,  Manger seul 	De 36 à 50 €	Victor Hugo,  Boissière	48.8671183	2.287511600000016
309	Perruche 	Restaurant	Paris	75009	2, rue du Havre 	9e étage du Printemps de l’Homme	+33 1 42 82 60 00 		Nourritures mondaines,  Néobrasserie	Ouvert le dimanche,  Ouvert le lundi,  Take-away,  Voir et se faire voir	De 36 à 50 €	Saint-Lazare,  Havre-Caumartin	48.8740052	2.3272280999999566
310	Double Dragon	Restaurant	Paris	75011	52, rue Saint-Maur		+33 1 71 32 41 95		Asiatique	Ouvert le dimanche,  Ouvert le lundi,  Antidépresseur,  Manger seul 	De 36 à 50 €	Saint-Ambroise,  Rue Saint-Maur	48.8626015	2.3798916000000645
311	Krügen	Restaurant	Paris	75011	58, rue de la Fontaine-au-Roi		+33 9 52 29 78 79		Crêperie	Ouvert le dimanche,  Take-away,  Kid friendly,  Brunch,  Terrasse	De 16 à 35 €	Goncourt,  Parmentier	48.8680751	2.373889200000008
312	Boutique Yam'Tcha	Restaurant	Paris	75001	4, rue Sauval		+33 1 40 26 06 06		Chinois,  Lèche-doigts	Take-away,  Antidépresseur,  Manger seul 	De 16 à 35 €	Louvre - Rivoli	48.8617019	2.3424474999999347
313	Beige	Restaurant	Paris	75005	31, rue de la Parcheminerie		+33 1 46 33 75 10		Japonais,  Tapas	Terrasse,  Manger seul 	De 16 à 35 €	Cluny - La Sorbonne	48.8517973	2.3444743999999673
314	Kokoro	Restaurant	Paris	75005	36, rue des Boulangers		+33 1 44 07 13 29		Cuisine du marché,  Néobistrot	Terrasse,  Manger seul 	De 36 à 50 €	Cardinal Lemoine	48.8462505	2.3524797000000035
315	Ma Kitchen 	Restaurant	Paris	75010	85, rue d’Hauteville		Pas de téléphone. 		Coréen,  Lèche-doigts	Ouvert le lundi,  Take-away,  Manger seul 	Moins de 15 €	Poissonnière	48.8769775	2.3512273999999707
316	Au Passage	Restaurant	Paris	75011	1 bis, passage Saint-Sébastien 		+ 33 1 43 55 07 52		Néobistrot,  Bar à vins / Cave à manger	Antidépresseur,  Faim de nuit	De 16 à 35 €	Saint-Sébastien-Froissart	48.8615804	2.3686500000000024
317	Caractère de Cochon	Restaurant	Paris	75003	42, rue Charlot		+33 1 42 74 79 45		Sandwichs / Bagels,  Lèche-doigts	Ouvert le dimanche,  Ouvert le lundi,  Take-away,  Antidépresseur,  Manger seul 	Moins de 15 €	Filles du Calvaire,  Saint-Sébastien-Froissart	48.86270529999999	2.3625306999999793
318	Le Mary Celeste	Restaurant	Paris	75003	1, rue Commines		+33 1 42 77 98 37		Bar à vins / Cave à manger	Ouvert le dimanche,  Ouvert le lundi,  Antidépresseur,  Faim de nuit,  Terrasse,  Voir et se faire voir	De 16 à 35 €	Filles du Calvaire,  Saint-Sébastien-Froissart	48.861688	2.364839599999982
319	Hôi An 	Restaurant	Paris	75013	109, avenue d'Ivry 		+33 1 44 24 81 03		Asiatique,  Vietnamien	Ouvert le dimanche,  Take-away,  Kid friendly,  Antidépresseur,  Terrasse,  13 à table,  Manger seul 	De 16 à 35 €	Tolbiac,  Olympiades	48.82541320000001	2.3611042999999654
320	Barak	Restaurant	Paris	75010	62, rue du Faubourg-Poissonnière		Pas de téléphone 		Kebabs,  Sandwichs / Bagels,  Lèche-doigts	Ouvert le dimanche,  Ouvert le lundi,  Take-away,  Kid friendly,  Terrasse,  13 à table,  Manger seul 	Moins de 15 €	Poissonnière	48.87551819999999	2.3482715999999755
321	Rooster	Restaurant	Paris	75017	137, rue Cardinet		+33 1 45 79 91 48		Néobistrot	Ouvert le lundi,  Terrasse,  Manger seul 	Plus de 51 €	Brochant,  Wagram,  Malesherbes	48.886801	2.313211000000024
322	Jixiao’s Buns	Restaurant	Paris	75006	21, quai des Grands Augustins		+33 1 42 02 77 37		Chinois	Ouvert le dimanche,  Ouvert le lundi,  Take-away,  Antidépresseur,  Manger seul 	Moins de 15 €	Odéon,  Cluny - La Sorbonne,  Saint-Michel,  Cité	48.8540473	2.3432703999999376
323	Yaya Secrétan	Restaurant	Paris	75019	33, avenue Secrétan		+33 1 42 41 12 86		Grec,  Méditerranéen,  Néobrasserie	Ouvert le dimanche,  Ouvert le lundi,  Antidépresseur,  Terrasse,  13 à table,  Manger seul 	De 16 à 35 €	Bolivar,  Jaurès	48.8811718	2.3738042999999607
324	Ave Pizza Romana	Restaurant	Paris	75011	90, rue de la Folie Méricourt		+33 9 83 63 83 81		Pizzas	Ouvert le dimanche,  Take-away,  Kid friendly,  Antidépresseur	De 16 à 35 €	République,  Oberkampf,  Parmentier	48.8669245	2.36964439999997
325	Trois Fois Plus de Piment Saint Germain	Restaurant	Paris	75005	17, rue Frédéric Sauton		+33 1 42 01 65 15		Asiatique,  Chinois	Ouvert le dimanche,  Antidépresseur,  Terrasse,  Manger seul 	Moins de 15 €	Maubert - Mutualité	48.8507225	2.3491624000000684
326	Sbrisolona	Restaurant	Paris	75011	44, rue Trousseau		+33 9 84 48 14 58		Italien,  Snack / Tartes / Salades / Soupes / Bols	Ouvert le lundi,  Kid friendly,  Terrasse	De 16 à 35 €	Faidherbe - Chaligny,  Ledru Rollin	48.8522421	2.379231699999991
327	Grand Café d'Athènes	Restaurant	Paris	75010	74, rue du Faubourg Saint-Denis		+33 1 74 64 65 46		Café / Coffee Shop,  Grec,  Méditerranéen	Ouvert le dimanche,  Ouvert le lundi,  Antidépresseur,  Terrasse,  Manger seul 	De 16 à 35 €	Château d'Eau	48.87310799999999	2.354795500000023
328	La Frasca	Restaurant	Paris	75006	7, rue Corneille		+33 1 42 03 57 32 		Bistrot,  Méditerranéen	Ouvert le lundi,  Antidépresseur,  Manger seul 	De 36 à 50 €	Odéon,  Cluny - La Sorbonne	48.8493171	2.3393934000000627
329	Au Bon Pho	Restaurant	Paris	75003	22, rue au Maire		+33 1 42 72 88 32		Asiatique,  Vietnamien	Ouvert le dimanche,  Ouvert le lundi,  Take-away,  Manger seul 	Moins de 15 €	Arts et Métiers	48.8647367	2.356092600000011
330	Café Varenne 	Restaurant	Paris	75007	36, rue de Varenne		+33 1 45 48 62 72		Bistrot,  Café / Coffee Shop	Ouvert le lundi,  Kid friendly,  Terrasse,  Manger seul 	De 36 à 50 €	Rue du Bac	48.8541245	2.323543500000028
331	Django	Restaurant	Paris	75009	24, rue Victor-Massé		+33 1 74 64 64 84		Néobistrot	Terrasse	De 16 à 35 €	Pigalle	48.8809056	2.338027399999987
332	Amarante	Restaurant	Paris	75012	4, rue Biscornet		+33 7 67 33 21 25		Bistrot	Ouvert le dimanche,  Ouvert le lundi,  Antidépresseur	De 36 à 50 €	Bastille	48.8496201	2.370114000000058
333	La Merceria	Restaurant	Paris	75002	44, rue de Cléry		+33 1 42 36 06 55		Pizzas	Ouvert le lundi,  Take-away,  Kid friendly,  Antidépresseur,  13 à table	De 16 à 35 €	Sentier	48.8683008	2.3474572999999737
334	Flocon	Restaurant	Paris	75005	75, rue Mouffetard				Cuisine du marché,  Néobistrot	Ouvert le dimanche,  Kid friendly,  Antidépresseur,  13 à table	De 16 à 35 €	Place Monge,  Censier - Daubenton	48.8421312	2.349826099999973
335	Ten Belles 6	Restaurant	Paris	75006	53 Rue du Cherche-Midi		+33 9 83 34 33 65		Biocool,  Café / Coffee Shop,  Salon de thé / Pâtisserie,  Snack / Tartes / Salades / Soupes / Bols,  Lèche-doigts	Take-away,  Kid friendly,  Antidépresseur,  Brunch,  Terrasse,  Manger seul 	Moins de 15 €	Rennes,  Vaneau	48.8487182	2.3252374999999574
336	Luz Verde	Restaurant	Paris	75009	24, rue Henry-Monnier		+33 1 70 23 69 60		Mexicain,  Lèche-doigts	Take-away,  Antidépresseur,  Faim de nuit,  13 à table	De 16 à 35 €	Pigalle	48.8803917	2.3376164000000017
337	L'Attache	Restaurant	Paris	75011	52, rue Basfroi		+ 33 1 45 31 01 22		Bar à vins / Cave à manger	Ouvert le dimanche,  Ouvert le lundi,  Take-away,  Antidépresseur,  Faim de nuit,  Manger seul 	De 16 à 35 €	Voltaire	48.8565569	2.3782940999999482
338	Boulangerie Chambelland 	Restaurant	Paris	75011	14, rue Ternaux		+33 1 43 55 07 30		Salon de thé / Pâtisserie,  Sandwichs / Bagels	Ouvert le dimanche,  Kid friendly,  Antidépresseur,  Terrasse	Moins de 15 €	Parmentier	48.8643755	2.3732250000000477
339	Ten Belles Bread	Restaurant	Paris	75011	17-19, rue Breguet		+33 9 67 86 08 19		Café / Coffee Shop,  Salon de thé / Pâtisserie,  Lèche-doigts	Ouvert le dimanche,  Ouvert le lundi,  Take-away,  Antidépresseur,  Manger seul 	Moins de 15 €	Bréguet - Sabin	48.8579983	2.373243900000034
340	Le Siffleur de Ballons	Restaurant	Paris	75012	34, rue de Cîteaux		+33 1 58 51 14 04		Planches / Assiettes froides,  Bar à vins / Cave à manger	Take-away,  Manger seul 	De 16 à 35 €	Faidherbe - Chaligny	48.84953429999999	2.3812778999999864
341	Les Cailloux	Restaurant	Paris	75013	58, rue des Cinq-Diamants		+33 1 45 80 15 08		Italien	Ouvert le dimanche,  Ouvert le lundi,  Take-away,  Kid friendly,  Antidépresseur,  Terrasse,  13 à table,  Manger seul 	De 36 à 50 €	Corvisart	48.8277075	2.3493086999999377
342	Guillaume Grasso, La vera pizza napoletana	Restaurant	Paris	75015	45, rue Brancion		+33 1 45 33 83 83		Pizzas	Ouvert le lundi,  Take-away,  Kid friendly,  Antidépresseur,  13 à table	De 16 à 35 €	Plaisance,  Convention	48.83361319999999	2.3044584
343	L’Entredgeu	Restaurant	Paris	75017	83, rue Laugier		+33 1 40 54 97 24		Bistrot,  Cuisine du marché	Ouvert le lundi	De 36 à 50 €	Louise Michel	48.8847305	2.2914016
344	Maison Plisson Saint-Honoré	Restaurant	Paris	75001	35, pl. du Marché Saint-Honoré		+33 1 83 97 96 96		Cuisine du marché,  Néobistrot	Antidépresseur,  Brunch,  Terrasse,  Voir et se faire voir	De 16 à 35 €	Pyramides,  Quatre Septembre,  Opéra	48.8675776	2.3319743
345	KGB (Kitchen Galerie Bis)	Restaurant	Paris	75006	 25, rue des Grands-Augustins		+33 1 46 33 00 85		Cuisine d'auteur,  Néobistrot	Antidépresseur,  Faim de nuit,  Fais-moi mal	Plus de 51 €	Odéon,  Saint-Michel	48.8538575	2.3401633
346	Petit Navire	Restaurant	Paris	75020	85, rue Julien-Lacroix		+33 1 43 58 79 64		Bistrot,  Méditerranéen	Antidépresseur,  Manger seul 	De 16 à 35 €	Belleville,  Pyrénées	48.8717761	2.382539700000052
347	Montezuma	Restaurant	Paris	75002	15, rue Notre-Dame-des-Victoires		+33 1 75 57 39 16		Café / Coffee Shop,  Néobistrot,  Sandwichs / Bagels,  Bar à vins / Cave à manger	Antidépresseur,  Manger seul 	De 16 à 35 €	Bourse	48.8682309	2.3416915000000245
348	Maafim	Restaurant	Paris	75002	5, rue des Forges		+33 1 42 36 40 83		Israélien	Ouvert le dimanche,  Ouvert le lundi,  Take-away,  Antidépresseur,  Terrasse,  Manger seul 	De 16 à 35 €	Sentier	48.8678921	2.348832600000037
349	Komatsubaki	Restaurant	Paris	75008	3, rue d’Artois		+ 33 1 42 25 26 78		Japonais,  Sushis	Ouvert le dimanche,  Take-away,  Antidépresseur,  Fais-moi mal,  Manger seul 	Plus de 51 €	Saint-Philippe-du-Roule	48.8722719	2.3087754000000587
350	Aux Bons Crus	Restaurant	Paris	75011	54, rue Godefroy-Cavaignac		+33 1 45 67 21 13		Bistrot,  Brasserie,  Terroir	Ouvert le lundi,  Antidépresseur,  13 à table,  Manger seul 	De 16 à 35 €	Voltaire	48.8572177	2.3800160000000687
351	Ogata	Restaurant	Paris	75003	16, rue Debelleyme				Asiatique,  Japonais,  Salon de thé / Pâtisserie	Ouvert le dimanche,  Antidépresseur,  Fais-moi mal,  Manger seul 	Plus de 51 €	Filles du Calvaire,  Saint-Sébastien-Froissart	48.8609789	2.3635105
352	Menkicchi	Restaurant	Paris	75001	41, rue Sainte-Anne		+33 1 42 21 11 68		Japonais	Antidépresseur	Moins de 15 €	Pyramides	48.8665316	2.3355828
353	Les Enfants Rouges	Restaurant	Paris	75003	9, rue de Beauce		+33 1 48 87 80 61		Cuisine d'auteur,  Cuisine du marché,  Néobistrot,  Bar à vins / Cave à manger	Ouvert le dimanche,  Ouvert le lundi,  Antidépresseur,  Manger seul 	De 36 à 50 €	Filles du Calvaire,  Arts et Métiers	48.8628812	2.3611051999999972
354	La Crèmerie	Restaurant	Paris	75006	9, rue des Quatre Vents		+33 1 43 54 99 30		Planches / Assiettes froides,  Bar à vins / Cave à manger	Ouvert le lundi,  Take-away,  Antidépresseur	De 16 à 35 €	Mabillon,  Odéon,  Saint-Sulpice	48.8517072	2.3378063
355	Sagan	Restaurant	Paris	75006	8, rue Casimir-Delavigne		+33 6 69 37 82 19 		Japonais	Antidépresseur,  Faim de nuit,  Manger seul 	De 36 à 50 €	Mabillon,  Odéon,  Luxembourg	48.8504247	2.339177800000016
356	The Cod House	Restaurant	Paris	75006	1, rue de Condé		+33 1 42 49 35 59		Japonais,  Lèche-doigts	Ouvert le dimanche,  Ouvert le lundi,  Antidépresseur,  Manger seul 	De 36 à 50 €	Mabillon,  Odéon	48.8515877	2.3385001999999986
357	L’Avant-Comptoir de la Mer	Restaurant	Paris	75006	3, carrefour de l’Odéon		+33 1 42 38 47 55		Terroir,  Poissons et fruits de mer,  Bar à vins / Cave à manger	Ouvert le dimanche,  Ouvert le lundi,  Antidépresseur,  13 à table,  Manger seul 	De 16 à 35 €	Odéon	48.8520358	2.3388124000000516
358	Salina	Restaurant	Paris	75009	24, rue du Faubourg Montmartre		+33 9 83 97 50 31		Poissons et fruits de mer	Antidépresseur,  Manger seul 	De 16 à 35 €	Cadet,  Grands Boulevards,  Le Peletier	48.8734331	2.34310830000004
359	Mamiche	Restaurant	Paris	75009	45, rue Condorcet		+33 1 53 21 03 68  		Casse-croûte,  Sandwichs / Bagels,  Lèche-doigts	Take-away,  Antidépresseur	Moins de 15 €	Poissonnière,  Anvers,  Pigalle,  Saint-Georges	48.8800657	2.3435071000000107
360	Mamagoto	Restaurant	Paris	75010	5, rue des Petits-Hôtels		+ 33 1 44 79 03 98		Cuisine du marché,  Néobistrot	Ouvert le lundi,  Antidépresseur	De 36 à 50 €	Poissonnière,  Gare de Lyon,  Gare de l'Est	48.8772256	2.3545000999999957
361	Septime La Cave	Restaurant	Paris	75011	3, rue Basfroi		+33 1 43 67 14 87		Planches / Assiettes froides,  Bar à vins / Cave à manger	Ouvert le dimanche,  Ouvert le lundi,  Antidépresseur,  Manger seul 	De 16 à 35 €	Ledru Rollin,  Charonne	48.85374660000001	2.3801829000000225
362	Le Servan	Restaurant	Paris	75011	32, rue Saint-Maur		+33 1 55 28 51 82		Cuisine d'auteur,  Néobistrot	Ouvert le dimanche,  Ouvert le lundi,  Manger seul 	De 36 à 50 €	Voltaire,  Saint-Ambroise,  Rue Saint-Maur	48.86101559999999	2.3814505999999938
363	L'Épicerie du Verre Volé	Restaurant	Paris	75011	54 bis, rue de la Folie-Méricourt		+33 1 48 05 36 55		Sandwichs / Bagels,  Lèche-doigts	Ouvert le lundi,  Take-away,  Antidépresseur,  Manger seul 	Moins de 15 €	Oberkampf,  Parmentier	48.8642882	2.371696400000019
364	Chez Mamane	Restaurant	Paris	75013	27, rue des Cinq-Diamants		+33 1 45 89 58 87		Maghreb,  Algérien	Ouvert le dimanche,  Ouvert le lundi,  Antidépresseur,  Faim de nuit,  Manger seul 	De 16 à 35 €	Corvisart	48.8285958	2.350679600000035
365	Les Saveurs du Sichuan	Restaurant	Paris	75014	34, rue Friant		+33 1 71 60 10 78		Asiatique,  Chinois	Ouvert le dimanche,  Take-away	De 36 à 50 €	Porte d'Orléans	48.8248167	2.3235340999999607
366	Breizh Café Odéon	Restaurant	Paris	75006	1, rue de l'Odéon		+ 33 1 42 49 34 73		Crêperie	Ouvert le dimanche,  Ouvert le lundi,  Kid friendly,  Antidépresseur,  Terrasse,  Manger seul 	De 16 à 35 €	Mabillon,  Odéon	48.85165079999999	2.338800499999934
367	Café Les Deux Gares	Restaurant	Paris	75010	1, rue des Deux-Gares			+33 1 40 38 17 05	Casse-croûte,  Café / Coffee Shop,  Néobistrot	Antidépresseur,  Terrasse	De 16 à 35 €	Gare de l'Est,  Gare du Nord	48.8782722	2.358169
368	Gemüse	Restaurant	Paris	75018	61, rue Ramey				Kebabs,  Lèche-doigts,  Turc	Ouvert le lundi,  Take-away,  Antidépresseur,  Manger seul 	Moins de 15 €	Marcadet-Poissonniers,  Jules Joffrin	48.8905173	2.3453026
369	La Calèche 	Restaurant	Paris	75007	 8, rue de Lille 		+33 1 40 20 94 21		Bistrot	Antidépresseur,  Terrasse	De 36 à 50 €	Saint-Germain des Prés,  Rue du Bac	48.857979	2.331831
370	Åke Table & Vin	Restaurant	Paris	75010	 8, rue Marie-et-Louise		+33 1 9 75 41 07 65		Néobistrot,  Suédois,  Bar à vins / Cave à manger	Antidépresseur,  Faim de nuit,  Terrasse	De 16 à 35 €	Jacques Bonsergent,  Goncourt	48.8719948	2.3669204
371	Bistro S 	Restaurant	Paris	75012	7, rue Saint-Nicolas		+33 1 43 43 49 40		Cuisine d'auteur,  Néobistrot	Antidépresseur,  Manger seul 	De 16 à 35 €	Ledru Rollin	48.8509389	2.3742997
372	Restaurant Rochechouart	Restaurant	Paris	75009	55, bd de Rochechouart		+33 1 42 81 91 00		Brasserie	Ouvert le dimanche,  Ouvert le lundi,  Antidépresseur,  Terrasse,  Voir et se faire voir,  13 à table	De 36 à 50 €	Anvers,  Pigalle	48.8819068	2.3410005
373	Le Grand Bol	Restaurant	Paris	75011	7, rue de la Présentation		+ 33 1 77 16 89 91		Chinois	Ouvert le dimanche,  Ouvert le lundi,  Manger seul 	De 16 à 35 €	Belleville	48.8709815	2.376805300000001
374	Tomette	Restaurant	Paris	75012	23, rue de Cotte		+ 33 1 53 17 09 91		Bar à vins / Cave à manger,  Lèche-doigts	Take-away,  Antidépresseur,  Manger seul 	De 16 à 35 €	Ledru Rollin	48.8498561	2.3777158999999983
375	Margo	Restaurant	Paris	75011	9, rue Jean-Pierre Timbaud		+33 1 43 38 52 19		Néobistrot	Ouvert le dimanche,  Antidépresseur,  Terrasse	De 36 à 50 €	Oberkampf	48.865104	2.3672374999999874
376	Holybelly 5	Restaurant	Paris	75010	5, rue Lucien-Sampaix		+33 1 82 28 00 80		Café / Coffee Shop	Ouvert le dimanche,  Ouvert le lundi,  Take-away,  Kid friendly,  Antidépresseur,  Brunch,  Manger seul 	De 16 à 35 €	Jacques Bonsergent	48.8710377	2.3596155999999837
377	La Fontaine de Belleville	Restaurant	Paris	75010	31-33, rue Juliette-Dodu		+33 9 81 75 54 54		Café / Coffee Shop	Ouvert le dimanche,  Ouvert le lundi,  Antidépresseur,  Brunch,  Terrasse	Moins de 15 €	Colonel Fabien	48.8757796	2.3684670999999753
378	Daroco	Restaurant	Paris	75002	6, rue Vivienne		+33 1 42 21 93 71		Italien,  Pizzas	Ouvert le dimanche,  Ouvert le lundi,  Faim de nuit,  Voir et se faire voir	De 36 à 50 €	Bourse	48.8672504	2.339061000000015
379	Les Papilles	Restaurant	Paris	75005	30, rue Gay-Lussac		+33 1 43 25 20 79		Bistrot,  Bar à vins / Cave à manger	Take-away,  Antidépresseur,  Terrasse,  13 à table	De 36 à 50 €	Place Monge,  Cluny - La Sorbonne,  Maubert - Mutualité	48.8445431	2.341672000000017
380	Marzo	Restaurant	Paris	75007	5, rue Paul-Louis-Courier		+ 33 1 43 35 08 05		Italien,  Pizzas	Ouvert le dimanche,  Ouvert le lundi,  Take-away,  Antidépresseur	De 36 à 50 €	Rue du Bac	48.8560031	2.3248614000000316
381	Le Tagine	Restaurant	Paris	75011	13, rue de Crussol 		+33 1 47 00 28 67		Marocain	Ouvert le dimanche,  Antidépresseur	De 36 à 50 €	Filles du Calvaire,  Oberkampf	48.8643875	2.3678218
382	Siseng	Restaurant	Paris	75010	82, quai de Jemmapes		 +33 9 51 55 15 77		Asiatique	Ouvert le dimanche,  Take-away,  Antidépresseur	De 16 à 35 €	Jacques Bonsergent,  Goncourt	48.8722937	2.3651244000000133
383	Song-Heng	Restaurant	Paris	75003	3, rue Volta		+33 1 42 78 31 70		Asiatique,  Vietnamien	Ouvert le lundi,  Take-away,  Manger seul 	Moins de 15 €	Arts et Métiers	48.8647273	2.3567798999999923
384	A.T. Restaurant 	Restaurant	Paris	75005	4 bis, rue du Cardinal-Lemoine		+33 1 56 81 94 08 		Cuisine d'auteur,  Néobistrot	Fais-moi mal	Plus de 51 €	Maubert - Mutualité,  Cardinal Lemoine,  Pont Marie	48.84974	2.3544939999999315
385	Abri	Restaurant	Paris	75010	92, rue du Faubourg-Poissonnière		+33 1 83 97 00 00		Cuisine d'auteur,  Néobistrot,  Lèche-doigts	Antidépresseur	De 16 à 35 €	Poissonnière	48.8778827	2.3492808999999397
386	Melt	Restaurant	Paris	75011	74, rue de la Folie Méricourt		+33 9 81 36 42 76		Viandes / Grillades,  Américain	Ouvert le dimanche,  Ouvert le lundi,  Take-away,  Antidépresseur,  Faim de nuit,  Terrasse,  13 à table,  Manger seul 	De 16 à 35 €	Oberkampf,  Parmentier	48.8656108	2.3708025999999336
387	Dalmata	Restaurant	Paris	75002	8, rue Tiquetonne		Pas de téléphone		Italien,  Pizzas	Take-away,  Kid friendly,  Terrasse	De 16 à 35 €	Etienne Marcel	48.8644688	2.349424499999941
388	Jouvence	Restaurant	Paris	75012	172 bis, rue du Faubourg-Saint-Antoine		+33 1 56 58 04 73		Cuisine d'auteur,  Cuisine du marché,  Néobistrot	Antidépresseur,  Terrasse	De 36 à 50 €	Faidherbe - Chaligny	48.8501829	2.382082999999966
389	Hôtel des Grands Boulevards	Restaurant	Paris	75002	17, boulevard Poissonnière		+33 1 85 73 33 33		Italien,  Néobistrot	Ouvert le dimanche,  Ouvert le lundi,  Brunch,  Terrasse,  Voir et se faire voir,  Manger seul 	De 36 à 50 €	Grands Boulevards	48.8709333	2.3448912000000064
390	Sushi B	Restaurant	Paris	75002	5, rue Rameau		+33 1 40 26 52 87		Japonais,  Sushis	Ouvert le dimanche,  Antidépresseur,  Fais-moi mal,  Manger seul 	Plus de 51 €	Bourse,  Pyramides,  Quatre Septembre	48.867702	2.3373794000000316
391	Au Ciel	Restaurant	Paris	75011	97, rue de Charonne		+33 1 43 72 19 08		Chinois	Ouvert le dimanche,  Ouvert le lundi,  Take-away,  Faim de nuit	De 16 à 35 €	Charonne	48.8545315	2.38337039999999
392	Aux Deux Amis	Restaurant	Paris	75011	45, rue Oberkampf 		+33 1 58 30 38 13		Tapas,  Bar à vins / Cave à manger	Faim de nuit,  Terrasse,  Voir et se faire voir	De 16 à 35 €	Oberkampf,  Parmentier	48.8645978	2.37186829999996
393	Da Graziella	Restaurant	Paris	75010	43, rue des Petites Écuries		+ 33 1 45 65 37 15		Pizzas	Ouvert le lundi,  Antidépresseur	De 16 à 35 €	Poissonnière,  Bonne Nouvelle,  Cadet,  Château d'Eau	48.8738319	2.3496602999999823
394	Les Enfants du Marché	Restaurant	Paris	75003	39, rue de Bretagne	Marché des Enfants Rouges	+ 33 1 40 24 01 43		Cuisine d'auteur,  Cuisine du marché,  Néobistrot,  Bar à vins / Cave à manger	Ouvert le dimanche,  Take-away,  Antidépresseur,  Terrasse,  Voir et se faire voir,  Manger seul 	De 36 à 50 €	Temple,  Filles du Calvaire,  Arts et Métiers	48.862755	2.3620003999999426
395	Saul's	Restaurant	Paris	75009	66, rue Rodier		Pas de téléphone. 		Lèche-doigts	Ouvert le dimanche,  Take-away,  Antidépresseur,  Manger seul 	Moins de 15 €	Anvers	48.8808969	2.3443393000000015
396	Faggio Salumeria	Restaurant	Paris	75009	72, rue de Rochechouart		+ 33 1 40 37 44 02		Bar à vins / Cave à manger	Ouvert le dimanche,  Ouvert le lundi,  Take-away,  Antidépresseur,  Terrasse	De 16 à 35 €	Barbès - Rochechouart,  Anvers	48.881634	2.3466908999999987
397	Maison Maison	Restaurant	Paris	75001	63, voie Georges-Pompidou		+33 9 67 82 07 32		Bistrot,  Cuisine du marché,  Guinguette	Ouvert le dimanche,  Ouvert le lundi,  Antidépresseur,  Terrasse	De 16 à 35 €	Pont Neuf,  Louvre - Rivoli	48.85838560000001	2.3420107
398	L’Epi Malin 	Restaurant	Paris	75006	4, rue Dupin		+33 1 45 49 22 53		Biocool,  Snack / Tartes / Salades / Soupes / Bols,  Végétarien	Ouvert le lundi,  Take-away,  Kid friendly,  13 à table,  Manger seul 	Moins de 15 €	Sèvres - Babylone	48.850142	2.324728999999934
399	Coutume Café	Restaurant	Paris	75007	47, rue de Babylone		+33 1 45 51 50 47		Café / Coffee Shop,  Snack / Tartes / Salades / Soupes / Bols	Ouvert le dimanche,  Ouvert le lundi,  Take-away,  Kid friendly,  Antidépresseur,  Brunch,  Manger seul 	De 16 à 35 €	Saint-François-Xavier	48.8515993	2.3184009999999944
400	Bistrotters 	Restaurant	Paris	75014	9, rue Decrès		+33 1 45 45 58 59		Bistrot,  Cuisine d'auteur,  Terroir	Ouvert le dimanche,  Ouvert le lundi,  Antidépresseur,  Manger seul 	De 36 à 50 €	Plaisance	48.8327781	2.314876300000037
401	Radioeat	Restaurant	Paris	75016	116, av. du Président Kennedy 		+33 1 47 20 00 29		Néobistrot	Ouvert le dimanche,  Ouvert le lundi,  Brunch,  13 à table,  Manger seul 	De 36 à 50 €	Ranelagh	48.8524459	2.2784990999999764
402	Il Bacaro	Restaurant	Paris	75011	9, rue Auguste-Laurent		+33 1 43 79 16 66		Italien	Antidépresseur	De 16 à 35 €	Voltaire	48.8571639	2.3820579000000635
403	Jones	Restaurant	Paris	75011	43, rue Godefroy-Cavaignac		+33 9 80 75 32 08		Néobistrot,  Bar à vins / Cave à manger	Ouvert le dimanche,  Ouvert le lundi,  Manger seul 	De 36 à 50 €	Voltaire	48.8566587	2.3800522999999885
404	Septime	Restaurant	Paris	75011	80, rue de Charonne		+33 1 43 67 38 29		Cuisine d'auteur,  Néobistrot	Ouvert le dimanche,  Ouvert le lundi,  Antidépresseur,  Fais-moi mal	Plus de 51 €	Charonne	48.8535855	2.3807021999999733
405	Candelaria	Restaurant	Paris	75003	52, rue de Saintonge		Pas de téléphone. 		Mexicain,  Lèche-doigts	Ouvert le dimanche,  Ouvert le lundi,  Take-away,  Antidépresseur,  Manger seul 	Moins de 15 €	Filles du Calvaire,  Saint-Sébastien-Froissart	48.8629395	2.3640889000000698
406	Bekseju Village	Restaurant	Paris	75013	53, bd. Saint Marcel		+33 1 77 11 24 37		Asiatique,  Coréen	Ouvert le dimanche,  Ouvert le lundi,  Antidépresseur,  13 à table,  Manger seul 	De 16 à 35 €	Les Gobelins,  Saint-Marcel	48.83771840000001	2.3556418000000576
407	Au Délice de Confucius	Restaurant	Paris	75013	68, bd de L’Hôpital				Asiatique,  Chinois	Ouvert le dimanche,  Take-away,  Kid friendly,  Antidépresseur,  Faim de nuit,  13 à table,  Manger seul 	De 16 à 35 €	Saint-Marcel	48.83780489999999	2.359768000000031
408	Café Pimpin 	Restaurant	Paris	75018	64, rue Ramey		+33 1 46 06 97 25		Biocool,  Café / Coffee Shop,  Salon de thé / Pâtisserie,  Snack / Tartes / Salades / Soupes / Bols	Ouvert le dimanche,  Ouvert le lundi,  Take-away,  Kid friendly,  Antidépresseur,  Terrasse,  13 à table,  Manger seul 	Moins de 15 €	Jules Joffrin	48.8917686	2.3449057000000266
409	Holybelly 19	Restaurant	Paris	75010	19, rue Lucien Sampaix		+33 1 82 28 00 80		Café / Coffee Shop,  Cuisine du marché	Ouvert le dimanche,  Ouvert le lundi,  Take-away,  Kid friendly,  Antidépresseur,  Brunch,  Manger seul 	De 16 à 35 €	Jacques Bonsergent,  Château d'Eau	48.87235769999999	2.3608024000000114
410	Jong-no Samgyetang	Restaurant	Paris	75013	23, boulevard de Port-Royal		+33 9 83 70 66 02		Coréen	Ouvert le lundi,  Take-away,  Manger seul 	De 16 à 35 €	Les Gobelins,  Censier - Daubenton	48.8369058	2.3481698000000506
411	Trois B	Restaurant	Paris	75019	48, av. Jean-Jaurès		+33 1 42 00 22 01		Cuisine du marché,  Néobistrot	Antidépresseur,  Terrasse	De 16 à 35 €	Laumière,  Jaurès	48.88366389999999	2.3744682999999895
412	Petrossian	Restaurant	Paris	75007	13, bd de la Tour-Maubourg		+33 1 44 11 32 32		Nourritures mondaines,  Poissons et fruits de mer	Ouvert le dimanche,  Ouvert le lundi,  Voir et se faire voir,  Fais-moi mal	Plus de 51 €	Invalides,  La Tour-Maubourg	48.8609799	2.3105437000000393
413	Kodawari Tsukiji	Restaurant	Paris	75001	12, rue de Richelieu		+33 9 84 30 99 26		Japonais	Ouvert le dimanche,  Kid friendly,  Antidépresseur,  Manger seul 	De 16 à 35 €	Palais Royal-Musée du Louvre,  Pyramides	48.8643706	2.3362551999999823
414	Pastore	Restaurant	Paris	75009	26, rue Bergère		+33 9 80 77 25 73		Italien,  Néobistrot	Ouvert le lundi,  Antidépresseur,  Manger seul 	De 16 à 35 €	Grands Boulevards	48.8725686	2.344523900000013
415	Caillebotte	Restaurant	Paris	75009	8, rue Hippolyte-Lebas		+33 1 53 20 88 70		Néobistrot	Ouvert le lundi,  Antidépresseur,  Terrasse	De 36 à 50 €	Cadet,  Notre-Dame de Lorette,  Saint-Georges	48.8771387	2.3408644999999524
416	Pontochoux	Restaurant	Paris	75003	18, rue du Pont-aux-Choux		+33 9 86 70 77 00		Japonais	Ouvert le dimanche,  Take-away,  Antidépresseur,  Manger seul 	Moins de 15 €	Saint-Sébastien-Froissart	48.8613189	2.3650927999999567
417	Thuy Long 	Restaurant	Paris	75006	111, rue de Vaugirard		+33 1 45 49 26 01		Asiatique	Ouvert le lundi,  Take-away,  Manger seul 	Moins de 15 €	Falguière	48.8451678	2.3207834
418	L’Ecailler de l’Ebeniste	Restaurant	Paris	75017	76, rue Boursault		+33 1 42 26 22 02		Poissons et fruits de mer	Take-away,  Antidépresseur,  Faim de nuit,  Terrasse	De 16 à 35 €	Place de Clichy,  Rome,  La Fourche	48.8863741	2.3176933
419	Buzkashi	Restaurant	Paris	75017	7, rue des Dames		+33 9 53 41 92 30		Afghan	Ouvert le lundi,  Take-away,  Antidépresseur,  Faim de nuit,  13 à table	De 16 à 35 €	La Fourche	48.8853693	2.3257681999999704
420	Le Comptoir du Canal	Restaurant	Paris	75019	14, quai de la Loire		Pas de téléphone.		Planches / Assiettes froides,  Bar à vins / Cave à manger	Ouvert le dimanche,  Ouvert le lundi	De 16 à 35 €	Jaurès	48.8838145	2.3718472
421	Le Rubis	Restaurant	Paris	75002	14, rue Léopold Bellan		+33 9 84 39 42 49		Bistrot,  Néobistrot	Antidépresseur,  Terrasse,  13 à table	De 16 à 35 €	Sentier	48.8666873	2.3460457
422	Neighbours	Restaurant	Paris	75003	89, boulevard Beaumarchais		Pas de téléphone. 		Café / Coffee Shop,  Salon de thé / Pâtisserie,  Snack / Tartes / Salades / Soupes / Bols	Ouvert le lundi,  Take-away,  Kid friendly,  Manger seul 	De 16 à 35 €	Saint-Sébastien-Froissart	48.8590391	2.3673727000000326
423	Café des Ministères	Restaurant	Paris	75007	83, rue de l'Université		+33 1 47 05 43 62		Bistrot	Ouvert le lundi,  Antidépresseur,  Manger seul 	De 36 à 50 €	Assemblée Nationale	48.8605861	2.319198099999994
424	Panda Panda	Restaurant	Paris	75010	21, rue Juliette Dodu		+33 1 71 39 55 45		Asiatique	Terrasse,  Manger seul 	De 16 à 35 €	Colonel Fabien	48.8752965	2.3689981999999645
425	Daily Syrien Veggie	Restaurant	Paris	75010	72, rue du Faubourg Saint-Denis		+33 9 72 87 28 96		Syrien	Ouvert le lundi,  Take-away,  Antidépresseur,  Terrasse	Moins de 15 €	Château d'Eau	48.8729527	2.354694800000061
426	Automne	Restaurant	Paris	75011	11, rue Richard Lenoir		+33 1 40 09 03 70		Néobistrot	Ouvert le dimanche,  Terrasse,  Fais-moi mal	Plus de 51 €	Charonne	48.85473649999999	2.381974600000035
427	Yard Cave 	Restaurant	Paris	75011	6, rue de Mont-Louis				Bar à vins / Cave à manger	Ouvert le dimanche,  Ouvert le lundi,  Antidépresseur,  Terrasse,  Manger seul 	De 16 à 35 €	Philippe Auguste	48.8581389	2.3883164999999735
428	Marso & Co	Restaurant	Paris	75013	16, rue Vulpian		+33 1 45 87 37 00		Cuisine du marché,  Méditerranéen,  Néobistrot	Ouvert le lundi	De 16 à 35 €	Corvisart,  Glacière	48.8317107	2.3463873000000603
429	La Cantine de l’Aiguillage	Restaurant	Paris	75013	19, rue des Frigos		+33 1 45 84 52 46		Cuisine du marché	Ouvert le lundi,  Kid friendly,  Antidépresseur,  Terrasse,  13 à table,  Manger seul 	De 16 à 35 €	Bibliothèque François Mitterrand	48.8314177	2.3789881999999807
430	Le Bambou	Restaurant	Paris	75013	70, rue Baudricourt 		+33 1 45 70 91 75		Asiatique,  Vietnamien	Ouvert le dimanche,  Manger seul 	De 16 à 35 €	Tolbiac,  Olympiades	48.8251841	2.362484399999971
431	Le Beurre Noisette	Restaurant	Paris	75015	68, rue Vasco-de-Gama		+33 1 48 56 82 49		Bistrot	Antidépresseur,  Terrasse,  13 à table	De 36 à 50 €	Lourmel,  Porte de Versailles	48.835621	2.2847405999999637
432	Chez Taeko	Restaurant	Paris	75003	39, rue de Bretagne		+33 1 48 04 34 59		Japonais	Ouvert le dimanche,  Take-away,  Kid friendly,  Terrasse,  13 à table,  Manger seul 	Moins de 15 €	Temple,  Filles du Calvaire,  Arts et Métiers,  Saint-Sébastien-Froissart	48.8629259	2.3621657
433	Bel Ordinaire Rive Gauche	Restaurant	Paris	75005	5, rue de Bazeilles		+33 9 81 11 72 78 		Cuisine du marché,  Néobistrot,  Bar à vins / Cave à manger	Terrasse,  13 à table,  Manger seul 	De 36 à 50 €	Censier - Daubenton	48.8389938	2.350627300000042
434	Hôtel Providence	Restaurant	Paris	75010	90, rue René-Boulanger		+33 1 46 34 34 04		Bistrot	Ouvert le dimanche,  Ouvert le lundi,  Antidépresseur,  Faim de nuit,  Brunch,  Terrasse,  Voir et se faire voir	De 36 à 50 €	Strasbourg-Saint-Denis	48.8693213	2.3565518999999995
435	Frenchie Pigalle 	Restaurant	Paris	75009	29, rue Victor-Massé 				Cuisine d'auteur,  Néobistrot	Ouvert le dimanche,  Ouvert le lundi,  Antidépresseur,  Terrasse	De 36 à 50 €	Pigalle,  Saint-Georges	48.88085599999999	2.3375085
436	Au Nouveau Nez	Restaurant	Paris	75011	104, Rue Saint-Maur		+33 1 43 55 02 30		Cuisine du marché,  Italien,  Bar à vins / Cave à manger	Antidépresseur,  Terrasse,  Manger seul 	De 16 à 35 €	Ménilmontant,  Parmentier,  Rue Saint-Maur	48.8662056	2.3770823
437	Food Court Galeries Lafayette Champs Élysées	Restaurant	Paris	75008	60, av. des Champs-Élysées		Pas de téléphone. 		Snack / Tartes / Salades / Soupes / Bols,  Lèche-doigts	Ouvert le dimanche,  Ouvert le lundi,  Take-away,  Manger seul 	De 16 à 35 €	Franklin-D. Roosevelt,  George V	48.8704642	2.306304800000021
438	L’Avant-Poste	Restaurant	Paris	75010	7, rue de la Fidélité		+33 9 81 41 01 07		Cuisine du marché,  Néobistrot	Antidépresseur	De 16 à 35 €	Gare de l'Est,  Château d'Eau	48.8743281	2.355979400000024
439	Candide	Restaurant	Paris	75010	35, rue de Sambre-et-Meuse		+33 1 83 87 99 93		Cuisine du marché,  Viandes / Grillades	Ouvert le lundi,  Antidépresseur,  13 à table	De 16 à 35 €	Belleville,  Colonel Fabien	48.8745278	2.3736842000000706
440	Petit Gris	Restaurant	Paris	75017	67, rue Rennequin		+33 6 11 34 69 91		Tapas,  Néobistrot	Antidépresseur,  Manger seul 	De 36 à 50 €	Pereire,  Porte de Champerret	48.8842495	2.294386900000063
441	Pouliche	Restaurant	Paris	75010	11, rue d'Enghien		+33 1 45 89 07 56		Cuisine d'auteur,  Néobistrot	Ouvert le dimanche,  Ouvert le lundi,  Antidépresseur	De 36 à 50 €	Bonne Nouvelle,  Strasbourg-Saint-Denis	48.8716298	2.352213900000038
442	Café Lai'Tcha	Restaurant	Paris	75001	7, rue du Jour		+33 01 40 26 05 05		Chinois,  Cuisine d'auteur	Take-away,  Antidépresseur,  Manger seul 	De 36 à 50 €	Les Halles,  Etienne Marcel	48.8636533	2.344082999999955
443	Blueberry	Restaurant	Paris	75006	6, rue du Sabot		+33 1 42 22 21 56		Japonais,  Sushis	Take-away,  Antidépresseur,  Voir et se faire voir,  Manger seul 	De 36 à 50 €	Saint-Germain des Prés,  Saint-Sulpice	48.8527452	2.331322
444	L'Orillon Bar	Restaurant	Paris	75011	35, rue de l'Orillon		Pas de téléphone.		Bistrot,  Café / Coffee Shop	Ouvert le lundi,  Kid friendly,  Antidépresseur,  Manger seul 	De 16 à 35 €	Belleville,  Couronnes	48.8702805	2.376393499999949
445	Les Petits Plats 	Restaurant	Paris	75014	39, rue des Plantes		+33 1 45 42 50 52		Bistrot,  Viandes / Grillades	Ouvert le lundi,  Antidépresseur,  Terrasse,  Manger seul 	De 36 à 50 €	Alésia	48.8285241	2.322067400000037
446	Le Citizen	Restaurant	Paris	75010	96, quai de Jemmapes		+33 1 83 62 55 50		Café / Coffee Shop,  Néobistrot,  Snack / Tartes / Salades / Soupes / Bols	Ouvert le dimanche,  Ouvert le lundi,  Antidépresseur,  Brunch	De 16 à 35 €	Jacques Bonsergent	48.87315299999999	2.3643653000000313
447	Osteria Ferrara	Restaurant	Paris	75011	7, rue du Dahomey		+33 1 43 71 67 69		Cuisine d'auteur,  Italien	Ouvert le lundi,  Antidépresseur,  Terrasse,  Manger seul 	De 36 à 50 €	Faidherbe - Chaligny	48.8512822	2.383291999999983
448	Au Bon Endroit 	Restaurant	Paris	75019	50, av Simon Bolivar			+33 6 29 63 29 78	Bistrot,  Cuisine du marché,  Terroir	Antidépresseur,  Terrasse	De 16 à 35 €	Pyrénées,  Buttes Chaumont	48.8765709	2.378448
449	Juvéniles	Restaurant	Paris	75001	47, rue de Richelieu		+33 1 42 97 46 49		Bistrot,  Cuisine du marché,  Bar à vins / Cave à manger	Take-away,  Antidépresseur	De 36 à 50 €	Bourse,  Pyramides	48.8663481	2.337016100000028
450	Nodaïwa	Restaurant	Paris	75001	272, rue Saint-Honoré		+33 1 42 86 03 42		Japonais	Ouvert le lundi,  Antidépresseur,  Manger seul 	De 36 à 50 €	Pyrénées,  Palais Royal-Musée du Louvre	48.8644074	2.3332946000000447
451	Ellsworth	Restaurant	Paris	75001	34, rue de Richelieu		+33 1 42 60 59 66		Néobistrot	Ouvert le lundi,  Antidépresseur,  Manger seul 	De 36 à 50 €	Palais Royal-Musée du Louvre,  Pyramides	48.8655806	2.3369466999999986
452	Kunitoraya	Restaurant	Paris	75001	1, rue Villedo		+ 33 1 47 03 33 65 		Asiatique,  Japonais	Ouvert le dimanche,  Ouvert le lundi,  Antidépresseur,  Voir et se faire voir,  Manger seul 	De 16 à 35 €	Bourse,  Palais Royal-Musée du Louvre,  Pyramides,  Quatre Septembre	48.8659958	2.3366616000000704
453	Homies / Homies Bis / Magnum	Restaurant	Paris	75004	26 et 13, rue Beautreillis 		+33 9 80 41 05 40 / +33 9 51 21 78 11 / +33 1 42 72 38 34		Tapas,  Bar à vins / Cave à manger	Ouvert le dimanche,  Antidépresseur,  Faim de nuit,  Terrasse,  Manger seul 	De 36 à 50 €	Sully - Morland	48.853101	2.3636756999999307
454	Le Pantruche	Restaurant	Paris	75009	3, rue Victor-Massé		+33 1 48 78 55 60		Cuisine du marché,  Néobistrot	Ouvert le lundi,  Antidépresseur,  Terrasse	De 36 à 50 €	Anvers,  Pigalle,  Saint-Georges	48.8804459	2.339839500000039
455	La Cave à Michel 	Restaurant	Paris	75010	34, rue Sainte-Marthe		+33 1 42 45 94 47		Tapas,  Bar à vins / Cave à manger	Ouvert le dimanche,  Take-away,  Antidépresseur,  Manger seul 	De 16 à 35 €	Belleville,  Colonel Fabien	48.87435319999999	2.372934399999963
456	Les Pipelettes	Restaurant	Paris	75014	31, rue Brézin		+33 9 81 29 27 32		Cuisine du marché,  Salon de thé / Pâtisserie,  Snack / Tartes / Salades / Soupes / Bols	Take-away,  Kid friendly,  Antidépresseur,  Brunch	De 16 à 35 €	Mouton-Duvernet	48.8315262	2.326211300000068
457	Naturellement 	Restaurant	Paris	75015	33 bis, rue Mademoiselle		+33 1 73 73 23 69		Cuisine du marché,  Italien,  Bar à vins / Cave à manger	Kid friendly,  Antidépresseur,  Manger seul 	De 36 à 50 €	Félix Faure,  Commerce	48.8437946	2.2967115999999805
458	Mamma Primi	Restaurant	Paris	75017	71, rue des Dames		+33 1 47 42 33 31		Italien,  Pizzas	Ouvert le dimanche,  Ouvert le lundi,  Kid friendly,  Antidépresseur,  Terrasse	De 16 à 35 €	Place de Clichy	48.88348209999999	2.3206986000000143
459	Roco	Restaurant	Paris	75017	1, rue Guillaume-Tell		+33 1 47 64 49 39		Italien,  Pizzas	Ouvert le lundi,  Take-away,  Antidépresseur	De 16 à 35 €	Porte de Champerret	48.88382319999999	2.292958399999975
460	Au Bon Coin	Restaurant	Paris	75018	49, rue des Cloys		+33 1 46 06 91 36		Bistrot	Antidépresseur,  Terrasse,  13 à table	De 16 à 35 €	Lamarck-Caulaincourt,  Jules Joffrin	48.8931359	2.3374921
461	Billili	Restaurant	Paris	75010	136, rue du Faubourg-Poissonnière		+ 33 9 87 76 27 49		Bar à vins / Cave à manger	Antidépresseur,  Terrasse,  Manger seul 	De 16 à 35 €	Barbès - Rochechouart,  Poissonnière,  Gare du Nord	48.8806409	2.350058699999977
462	Bonvivant Pizza 	Restaurant	Paris	75005	4, rue des Ecoles		+ 33 9 80 38 96 98		Italien,  Pizzas	Ouvert le dimanche,  Ouvert le lundi,  Take-away,  Terrasse	De 16 à 35 €	Cardinal Lemoine,  Jussieu	48.847823	2.3521385999999893
463	Laïa 	Restaurant	Paris	75011	226, bd Voltaire		+33 9 75 65 27 21 		Méditerranéen,  Poissons et fruits de mer	Antidépresseur,  Brunch,  Terrasse,  Manger seul 	De 16 à 35 €	Rue des Boulets 	48.85262549999999	2.388279
464	Auger 	Restaurant	Paris	75020	34, bd de Charonne				Café / Coffee Shop,  Snack / Tartes / Salades / Soupes / Bols,  Sandwichs / Bagels	Ouvert le dimanche,  Take-away,  Manger seul 	Moins de 15 €	Avron,  Buzenval	48.8505236	2.3990481
